restaurant_id,restaurant,address_city,longitude,latitude,dish_description
5640f4538237d9c4aaf3b751c4d11769b3fc1e3165ed3b912c508768f7fc15fd,Monteiro´s Lanches,SAO PAULO,-46.640973,-23.603658,Lanches
a660f6374ab1a743468f576cb89e3a8cd9b9776a363ada7002a5db6066a8b572,True Food,SAO PAULO,-46.657908,-23.554423,Comida Saudável
07fc65555705243de378cc34222909fe9f44ad055b855ec8b7b9b8df86d70874,Red Galeteria,SAO PAULO,-46.688782,-23.600529,Comida Variada
adc9c524d56679d7fb7ffd9d5b2a3eaba5209758751576f2ffa5d2a6432565f8,Lanchonete Dona Vina,SAO PAULO,-46.763415,-23.587101,Comida Brasileira
6b511620f33db24724ba2b2fe6c31d78a4247c6360f83c785afe181ac15c6996,Obentô,SAO PAULO,-46.743734,-23.642763,Comida Saudável
3ad0c82b4306631db6c2ea6eadf0cd40fd81a4a40e1a54db449de0757c1fc5cd,Pizza Ten,SAO PAULO,-46.528542,-23.524709,Pizza
19517fd3dd1410110ceb126db055177eec773fe742b295cc650d5b3e90e03dca,Pizzaria Recanto Paulista,SAO PAULO,-46.638033,-23.576293,Pizza
9adb44cf621550187d05b6db9dab5986c72d19fee8455b4c72365a9cdd8dd765,Veridiana Pizzaria - Jardim Paulista,SAO PAULO,-46.656763,-23.569046,Pizza
d1dd624567a14ecaff57e4f3d974dcdca9154f2b10e951c532418232c27b0c5b,Mcdonald's - Av. Itaquera,SAO PAULO,-46.497632,-23.550179,Lanches
03a07b5887439609476b6ce97e97be09f3e97c595d546a7c15ed56cda28f897f,Cuordicrema - Pamplona,SAO PAULO,-46.66017,-23.570396,Sorvetes
65e906523390bdf3a34bf6b9aa7ca4f7cfcf836be413eb3466db03d6400ccacb,Rei Do Hambúrguer,SAO PAULO,-46.505167,-23.593306,Lanches
c87b23fb9ddf4f910a8e8bfb3047767c089e5a52a12ecc384b939df7be94ba9e,Mamaggiore,SAO PAULO,-46.731419,-23.526847,Comida Italiana
b627e0b2700d03d131a837199af91df3fa9fb3996cc0b94d21a1f4458049c3e3,Vivenda Do Camarão - Mooca,SAO PAULO,-46.593978,-23.581559,Frutos Do Mar
c0864a061ef9f7554e40283634ac6e0c49c1d479f6cedf0fdfb97c653db66453,Le Gusta Mexicano E Porções,SAO PAULO,-46.695115,-23.483021,Comida Mexicana
80d7d5fb194f3e93cad49533190b2d444ca0f31e356e1ba6f717109ee461baab,Divino Sushi,SAO PAULO,-46.764969,-23.659173,Comida Japonesa
cc1216b9e500fb280f15999dd6f09b0bffb5d5945b0e471485685538a3a8d684,Empada Brasil - Casa Verde,SAO PAULO,-46.659388,-23.497927,Lanches
9ec072d2209b1130349f83288b46c7a6fe94b90ae19fdd5c0e2276061c45b32a,Açai E Tapioca,SAO PAULO,-46.642053,-23.491873,Comida Saudável
67edffa4a97416bdebfeecb1f14dd3ed9b2579a5c4bf8d5dee01597542ff4c47,D'rapha - Parque Maria Helena,SAO PAULO,-46.763624,-23.661863,Pizza
b7386e31f7186c908a1280fd5dca5fbefb063ad11f5a175fcf09a9ca0c3d2ef9,Suprem,PORTO ALEGRE,-51.214377,-30.032458,Comida Indiana
fcf897acb2858b758fb0dbf794b4e0760b5fece1eea97310ba474dd596e52703,A La Carte Mineiro,SAO PAULO,-46.691015,-23.620705,Comida Variada
3200faf731a606c4e6674a4b39229069c65fd9550eabbf583a348ebb557c9b28,Pirâmide Esfihas,SAO PAULO,-46.573633,-23.557755,Comida Árabe
0b179a3c2cef7529da8dc7a7f5b253f1eb6932edaeaaf92a361530abd28e200e,Baião De Dois,SAO PAULO,-46.583553,-23.479543,Comida Brasileira
d99d08700aac0d787861f55b830d363919d726f0ca248821ec31d15a8a68ffb1,Villa,SAO PAULO,-46.646523,-23.587993,Comida Brasileira
65936cf365a2b6795df2376b31bea6f7a13e15a2fb538aed145523f039e390ae,Mani In Pasta Cozinha Italiana,SAO PAULO,-46.643848,-23.581488,Comida Italiana
4f203489ab25bb2244b893222d954c58e743557dccf88f896a9f7f10d6131352,Wood Pizzas,PORTO ALEGRE,-51.194512,-30.038112,Pizza
b5b2694f8c332c8889186e9e783a33690e278060c5c7806295b0befcb9807cf7,Lanchonete Maranata,SAO PAULO,-46.484149,-23.499356,Lanches
097e9e030e1b6be9cdc15f1bc990637de5b9b16844fe80ae543671e78a1531b9,Pizzaria & Esfiharia Romanelle,SAO PAULO,-46.68602,-23.483678,Pizza
6c3909e10f3a3273ecc9aa3a31afb497fd9f34003020367b5a278717007d9ecd,Santo Rango Burguer,SAO PAULO,-46.625813,-23.495323,Lanches
d12b103430c550ecb3433c3bec68b6c783f4bf2e8eb8baaab5c9e1257ae55ef2,D+ Restaurante E Gril,SAO PAULO,-46.460262,-23.551979,Comida Brasileira
2bdaf0671043a17c0c3bcac6214f5f22323d3279a46706f75c6536d5c70126e8,Fruit&mellow,SAO PAULO,-46.691775,-23.633456,Comida Saudável
c759f9c1fe1679b63c2ae2d3f0aaf6dd57c2adf7591cfa34bd529918b85097a4,Sala Vip - Jardins,SAO PAULO,-46.660836,-23.568958,Pizza
fb8932d25f5900f7122234caeb9d96382fbd74e9e2ac926a7ee17d3a4005c3ee,Natturali - Vila Andrade,SAO PAULO,-46.736798,-23.631755,Comida Variada
6a5ab9b1cecbaaaa6df0991c23d055f1716d0220c425ce5a936782dae980cf7e,Stunt Burger Iguatemi,SAO PAULO,-46.688008,-23.57576,Lanches
75c192c878f15c80eefbf87f6f42fef52a59e232b27995750cd71cac286d0680,Oficina Do Espeto,SAO PAULO,-46.677889,-23.599333,Carnes
d6c9060a74ee3043417efd4972b072a3a6c7c56c9882b817b63755cb6fb6fc0f,Rueiro,SAO PAULO,-46.698649,-23.552478,Lanches
4dbee63d1932682b4f83f68b4bd20e188ce8f649bc8b75ce9a533592b51c976b,Bela Esfiha,SAO PAULO,-46.60422,-23.47654,Pizza
3f8417dbedb4d34ea57f3f6f6308253f26383b3336461a3452d66584fc676ef3,Dom Vitto Pizzeria,SAO PAULO,-46.646389,-23.647229,Pizza
d6fb18eccb20d10996989884b7c2f25eb1e763b3418f6f52df3d12ff0d12c0e8,Pizzaria Nossa Massa,SAO PAULO,-46.57006,-23.519558,Pizza
f7fda5c23f1c303bace9ba325c1be9ba9719be4eda330064d79521da9cc82d90,Burguer De Garagem,SAO PAULO,-46.592273,-23.540723,Lanches
0133f7928a01abcc231b3844cbfd328241cb1f6d167f3c71e724a4c6af9e5111,Temakeria Tuiuti,SAO PAULO,-46.576668,-23.529833,Comida Japonesa
c966f1ca8b9c35f894579fc36beb023c2f0b44c13186793c1a63bf540b605a4f,Pastel Gigante - São Luis,SAO PAULO,-46.757954,-23.660463,Cozinha Rápida
7c1fc3a7e7d2fb9de1106a605508bd9d0fedb866c4894f313cac48e331ccffe5,Nosso Café Moema Breakfast,SAO PAULO,-46.665139,-23.602738,Bebidas
6a3f465a0e2a4dcb161a7bcd8cc2991a2adec46dfe1ce84a76ce3b15d347fe10,Pizzaria Paulistana,SAO PAULO,-46.641353,-23.558431,Pizza
95de81a43bd6f9a1663733843c1f83c86019e845312c93878f75ad660448175f,Pizzaria Do Tião,SAO PAULO,-46.405851,-23.527004,Pizza
479920ae80ef34bb92f0abf48dcdc2585020a10daf98b76416bc47b05dc72764,Ora Bolas Snooker Bar,SAO PAULO,-46.690669,-23.544003,Lanches
42133b4c4057efe14de4757d07dc0495e7e393ef55d2174e311a4772f9a5a413,Whats Byer Bar E Lanchonete,SAO PAULO,-46.593893,-23.639719,Comida Brasileira
4829182aa61858146e3b1302dad88d77d56618ff15341041c73c7a332efb1f37,Kotay Sushi,SAO PAULO,-46.639059,-23.585015,Comida Japonesa
825afd57e93b4580a1a135f07ca36d507b1627bf7375ed60cab59c6a7f9b7f07,Jetis Burger & Grill,SAO PAULO,-46.706969,-23.632503,Lanches
cc08a95cfb4cec9ed5bf807a74a334799c81fc95a2d2ced04127d2d748e52928,Pot Pourri Pizzaria,PORTO ALEGRE,-51.185137,-30.030057,Pizza
7e3639ade95de9c24e9efeac7d62f66c725c3b645a642ddefe64c9d9f0b82e4b,Barxaréu,SAO PAULO,-46.644853,-23.587433,Comida Brasileira
0b5a64cac73199fda56afa51049c3b6fbcd4fdd16b40535404548eec2b494cef,Anttonio's Pizzas,RECIFE,-34.899376,-8.004003,Pizza
6813aacc6b36822a9a33673861c630f6301da767f6d63c752e38f1064aa8df01,Casa Buon Gusto,SAO PAULO,-46.676404,-23.602563,Comida Saudável
5c6671ed4ea9638c298308c8616d7d0263ed64d0d7cc307ae1f398e3b44bde61,Rusty Rock Burguer,SAO PAULO,-46.665273,-23.557798,Lanches
a9473febbb3acff9a910ad85726e5c1846ec29f2343c1b0c02f67e072999c58a,Restaurante Requinte,SAO PAULO,-46.534737,-23.549774,Comida Brasileira
28222e62c49635348386b031b8d5a494ef77524cf4eac4bcf0c888e1fc409445,Rota 448 Burger Park,RECIFE,-34.885747,-8.038205,Lanches
f5c809925bf9c93da4ed69540d235aaeb7fb3a9acdd0f932ee2843fc0c1061e1,Alquimia Do Café - Brooklin,SAO PAULO,-46.688632,-23.621254,Vegetariana           
9aa8c6ff088b03f8f3d107093dd9ea3a7cc65d247d5f2e7c037deaab14c68cca,Delivery Alemanha,SAO PAULO,-46.678448,-23.475613,Comida Brasileira
7246131430c1af8864d3cd439b58f9b77e279fccc5cbd15a5a00710cade8351b,Restaurante Camponeza,PORTO ALEGRE,-51.199383,-30.01196,Cozinha Rápida
578f51bbdeba896f89f73d62790dd925d67f16a8dccbffe843b3246dce39f476,Aclimação Bar E Gastronomia,SAO PAULO,-46.628937,-23.577503,Comida Brasileira
e5ce58890d30a059f688bf0b2b78ac569f77f844504e8e718e5519176bd71ba5,Don Camaleon Paletas Mexicanas,SAO PAULO,-46.606666,-23.583968,Comida Mexicana
7e40ad2f46c915de22a21fbec5416fd3fea4193bfd0b6302cacb0c2197df0136,Pizzeria Sozza - Jabaquara,SAO PAULO,-46.647834,-23.651374,Pizza
e7f6dcb3b29fc8dfa5884965ca47360f1676e303fe7e766834f9b78d9b6dc65c,Executivo,PORTO ALEGRE,-51.193644,-30.056629,Comida Brasileira
a5600d6d23a847c90aff80a5b6b381885d4569da88eef391493ef8c65d02cdd1,Carlitos Burger,RECIFE,-34.908704,-8.043933,Lanches
57191b4877dd50f1c4d5b85cb77dc947bb203a3cf27bebb5bd8677a86d1d52ba,Ryuu Zushi - Perdizes,SAO PAULO,-46.682043,-23.536287,Comida Japonesa
148c755b1b75f1c68dfbceba5273a45dff86f0e2f9feb4bf730b2fa04b786f88,Pizzeria 2 Amigos,RECIFE,-34.93487,-8.033723,Pizza
469cd882905d1ac9b45da41f2c87b90365b30a44271f3acacc82ce3db698e661,Simples E Caseiro,SAO PAULO,-46.627005,-23.615718,Comida Variada
09c8b6ded0cfd9bc5061b82617b00bacc74a909d0deaf9c6855a595e6f76848a,Bar Do Betinho,SAO PAULO,-46.689807,-23.555369,Comida Brasileira
c781b075cdb9a63d933a25a0b9911b9c8241ad187dd2decb3fa79650ebda58f5,Big In Beef Hamburgueria,SAO PAULO,-46.757879,-23.485436,Lanches
4ad871e14730dfcd11bab74c61f4980a2ad9844ddea51d81d29374fe5bb876a2,Brazzatto Pizza Delivery,SAO PAULO,-46.575643,-23.589941,Pizza
d1401cdcbdb60801e04917b32063b7a6901ad10afeba5df2d117d2f5664e0a79,Mcdonald's - Cursino,SAO PAULO,-46.620296,-23.622753,Lanches
fdc6d5a28556317763f07e2ffa9aa5d8f750708364abcb1b8153273491ea5ba8,Haven Burger,SAO PAULO,-46.681238,-23.530868,Lanches
62a9026ccc3094565ab6573136db5d2772a8e6f366f3dc76b5947a6115b75560,Figueira Prime Burguer,SAO PAULO,-46.729464,-23.617316,Lanches
fee9602ea201d1c3f629b27bcc7dad853785bd7824487406981e61a3d092b35a,Confraria Da Picanha,RECIFE,-34.903466,-8.128334,Carnes
e2bde93d41021bb5748568e75338c465e3272d1086ba94082f0c0ae6494942ea,Subway - Casa Amarela,RECIFE,-34.916677,-8.027596,Lanches
e90faf06a701e68779da8253b60fab582da76c3429785baab745d09291c09188,Pizzaria Nova Veneza,SAO PAULO,-46.601458,-23.627944,Pizza
e3b7fa13bfe785175e7a2a30ea8c6200bbbc6ca4f89dfdcb68ef38aeacea74f5,Tank Burger,SAO PAULO,-46.516852,-23.539454,Lanches
5558333dfa0dbe4d173c0eec8152362cd5f5b6ed9724194e94811121a655ef91,É José! Sushi,SAO PAULO,-46.694019,-23.561993,Comida Japonesa
48f74e55f23e09b7a05caa3d2d86b690bfde7013cdf334f6b54c58986ea1a6b2,Pizzaria A Paulistana,SAO PAULO,-46.653498,-23.470188,Pizza
664aa577a0cc1435e72100136c914d1575c0d4b115d6d14d4a64fe6cc3143be3,Juka Burger,SAO PAULO,-46.660633,-23.489493,Lanches
c2d00c2908913f688049266a4049974000d44def58f517905f040a5fa1627048,Pizza Express (vila Mariana),SAO PAULO,-46.648233,-23.587963,Pizza
5a5bce540ad142742a38c9a71c96a7193fb8f30a6531be49b289e6381d239ee9,Olea Mozzarella Bar -cidade Jardim,SAO PAULO,-46.697539,-23.59905,Comida Italiana
002a8cba18e1ccaefc63ed0b34e5f33e628d79297472bcc4a430ca64916dd649,Boali - Riomar Recife,RECIFE,-34.890726,-8.085986,Comida Saudável
4926db170cc04e51beb5a8f06233a3d2f01a8c294d3cd053c00a3ce3921140fd,Dona Carmela,SAO PAULO,-46.635823,-23.503313,Comida Italiana
56c4f66bcfca70d0071ea2b5c77e00ba1d8c660416efe7746fbbbe880e86779e,Mochi Sushi&temakeria,SAO PAULO,-46.673568,-23.506868,Comida Japonesa
4394398d70cdd09973e8e5c9497856e5e7eb027efbc01f800f70c6967646dd15,Saladenha - Av. Paulista,SAO PAULO,-46.659122,-23.559197,Comida Saudável
e63734d9ab3401dba416cbeeaf934a4357ccf95dba1320c4e430b5eae9643af4,Restaurante E Pizzaria Dos Gêmeos,RECIFE,-34.895029,-8.009778,Comida Brasileira
092480ef41a5dc4679d3642273ecb79630f592e56e85831b83c91f14a4e7fe1e,Top Blend's Burger Grill,SAO PAULO,-46.734819,-23.664018,Lanches
a038873b409c88c4e3a59ec1df2513c7a59c30a1e6f343d8f3098d8983412475,Luth Pizzaria,SAO PAULO,-46.400363,-23.539305,Pizza
a4e99849cd6dc12b624fa8a76397658cbd8e32bb9a5c3c202641fa5f1c494ae9,Mil Grau Food,SAO PAULO,-46.732969,-23.528732,Pizza
dfeab5161b83a8aba2ac82443bdc684a0a058500ba403adbe0015e4dda9d0142,Black180,RECIFE,-34.943536,-8.059239,Lanches
2f11ce4ba55841d53d0c790d6db9c84aa914bd2f672cbda86b57a795d27dafe9,Consagrado Mineiro,SAO PAULO,-46.702819,-23.632898,Comida Brasileira
b390e8a2d032196609679f18b82c59b0455cb22cacaeb02f14d073dcf843727f,Buongustaio,RECIFE,-34.882717,-8.089501,Comida Italiana
9d28820b4fc8cc80968168f5b8d5b01747a90c0eaf3f1ff5f76af7be14f93ae5,Quanto Prima - Paço Alfândega,RECIFE,-34.874096,-8.064326,Comida Brasileira
ba92bf902d7d92accd8c4dd974191f62581ebdf874fbd150c93cb55ea498fc1c,Haburgueria E Pastelaria Big Fome,SAO PAULO,-46.392676,-23.519564,Lanches
76ef5d713a265d53cdfa176e257cab86c77adbaa3d005bd0b3edfba1b0df7e19,Pizza Prime - Bela Vista,SAO PAULO,-46.648334,-23.563551,Pizza
0c42e9c1bc40fa4304f8a23942bf0a8f8b31bc8859d2115fb27a7b67434bea36,Pizza Hut - Tatuapé,SAO PAULO,-46.564621,-23.552644,Pizza
60f257baa63aa31e56c0bd2d40971bd8ec882393545211b55937307ab79425aa,Gig Esfihas Bela Vista,SAO PAULO,-46.64161,-23.552295,Comida Árabe
6214ef6b8376c1c9a8561cb5f0b4f71390c84b1183ea104363a6a194672c2f7f,Do Italiano Pizzaria E Restaurante,SAO PAULO,-46.576778,-23.592604,Comida Brasileira
e3f42f0ad3e032c15cbf2244907dcc4160553d913046879f08b6c9b8604b53b7,A Padoka,SAO PAULO,-46.627165,-23.605574,Comida Brasileira
381dd04d854de0621c8f33213a136dc6bd35b130cd571732fbbcb69f0f14fe9a,Appenini Gourmet,RECIFE,-34.877816,-8.025553,Comida Variada
a82b1e28f133a422b88452b63e37483245ac3ae6d3c4ccd6d90e1a27f84bed97,Mcdonald's - Moinho Dos Ventos,PORTO ALEGRE,-51.200283,-30.024136,Lanches
c2de28c501392e6320717e3dcaf0352fb3927e7e3601550d68c4148a062754da,Xis Da Vila,SAO PAULO,-46.70714,-23.497955,Lanches
7a79cecd2ca14103d5d15702b80f2228aef41b7aaff53364023f10e9fdb94029,China In Box - Boa Viagem,RECIFE,-34.899684,-8.113579,Comida Chinesa
4e51f9876fd9caf4ba56e4f75fff0f0fc467ac762b749edac287aea9abab4078,Sabore Pizzaria,SAO PAULO,-46.642492,-23.549195,Pizza
f9befe0adb0afea4b097afad630e838375c44d1b696926d7964dfa77e4ecd52d,Dukin's Burger,SAO PAULO,-46.746004,-23.488105,Lanches
1b9119958847671b0a0fdd0afe98736f5d5d335a2d3f15f8bfc71aa0d6430e4f,Taverna Fit,SAO PAULO,-46.714369,-23.63282,Comida Saudável
00de49e1323adc7ba28aae39406ea24b71e2899c0cc5d5fc94859c7a82e427ac,Casa De Grelhados - Bassi,SAO PAULO,-46.682159,-23.592718,Carnes
f86e8fe5c4646876b19e47bf88670882a639de6cf5a8d0c426338703f5767b95,Cabeça Multi Lanches,PORTO ALEGRE,-51.226653,-30.036543,Lanches
406691c11e84e6b20935887757cc1357f34f414eac65fb96a29d46ee8fe65ae7,Toscana Bar & Restaurante,SAO PAULO,-46.415148,-23.486196,Cozinha Rápida
58700070d88a164b22cbbad44e384755799daa9f82f85c846d684b6192dcc29d,Sabor Gaúcho,SAO PAULO,-46.684368,-23.501848,Pizza
e8db7ffb6b7415fb80865e36ab8fe5c5917fa0ea2055bb980d3e187d45ea0cb5,Bartô Gelateria,SAO PAULO,-46.564727,-23.552018,Sorvetes
d043123d0df2e820455ff8381821f485cb55797d094f0dacfca9757eeda85ae1,Butcher's Market,SAO PAULO,-46.676689,-23.581143,Lanches
f740851758a43440aca7ccaf6b653051471e47ebf3fba605a74e3acafc16e419,Pizzaria Porcinos,SAO PAULO,-46.751804,-23.660965,Pizza
aeace5c4d0bf432de0de69c99fe61c170235956060a64cb504bdbee8e3207233,Neco Burguer E Café,SAO PAULO,-46.679051,-23.603538,Lanches
a8e6949c34ee6ad391e9584deb7c49fbc7a897874562766e4858d87cc66d3723,Mix Lanches,SAO PAULO,-46.492819,-23.572744,Lanches
c3bf5e21b73278e51a3769dda573cb97cd4d46c4d7768ae6fc469ecac2c056fa,Restaurante Roma Mineiro,SAO PAULO,-46.698429,-23.52282,Comida Brasileira
2305871ed2a2fe029f74e1392529157112b02802b34a60ac1af5ae22e7300988,Falafada Delícias Mediterrâneas,SAO PAULO,-46.653821,-23.542638,Comida Mediterrânea
2fa234677cd6b1f9112287f46f9364ad0b9232e5f4097665024aa8ce589ec977,Crazie Dogs,SAO PAULO,-46.671763,-23.527358,Lanches
eb97746594829c980a3eb2aab8a420e04a2e6a3118ef0f5b1a23276d2ac4903e,Lígia Refeições São Miguel,SAO PAULO,-46.524702,-23.520308,Comida Brasileira
09dc98bcedcb6b478e991cffdc83d0920c34e0c3edd29d6c8133ad5bac7f7fe4,Mulligan Irish Pub,PORTO ALEGRE,-51.157171,-30.029381,Comida Variada
85413cdfde66106ae2157346aa821fa68f5ed59462fc0204a538e6bf950260d0,Donna's Temakeria,RECIFE,-34.909316,-8.076349,Comida Japonesa
d33cc55674353d30e5515ee7147cd0cfa3211c16776341fa3b903f2d4807a04b,Johnny Boy Pastéis,PORTO ALEGRE,-51.231361,-30.13335,Lanches
c754965665a7c0e5f3387f796d62b6c376630eb80b196856f6f2a6ee27579a86,Naturella,SAO PAULO,-46.695918,-23.573732,Comida Saudável
de5695d8b032416a26d404b23f4dd5dd9125ce18dd1f4123f78eb1138e0431d6,Floresta Crescente,SAO PAULO,-46.684149,-23.678024,Lanches
efd3141daf59e5e3c41fc721358a39322691d8a00bcad030c1859009d44962a2,Delicinhas,SAO PAULO,-46.454557,-23.547459,Comida Brasileira
45d2554787efda5b8ce088dadc09743066ce6201e5453c499b89c08cffa82ae6,O Japô Express,SAO PAULO,-46.668704,-23.613107,Comida Japonesa
0f0186bbf6c791f795a9120fea980bb6dfd12ba6d17699b8757924ed91b95c8a,Gendai - Jardim Sul,SAO PAULO,-46.736519,-23.630916,Comida Japonesa
aaaedaecc0b5606c776de2fc15258c4b2c22ed4ce31074a287af7e7b1d02ad25,Komiaki Sushi,PORTO ALEGRE,-51.216652,-30.120953,Comida Japonesa
ced167811db2bb3110fcf669e901362efd6e8371dbab96a4a627b34ccf64d898,M&mmilkshake,SAO PAULO,-46.773231,-23.435284,Lanches
5c3c067e099df8ab0e0bc723782f9aa4f6c56521c14a024d8bd23787e100fb0c,Rizzo Gourmet E Burger+,SAO PAULO,-46.69699,-23.619036,Comida Italiana
d14b9f561137ee1a6ebda7666a31318ee2f88fcc5b0fdabb6f359315a9fc969a,Quanto Prima - Plaza,RECIFE,-34.912718,-8.036785,Comida Italiana
ea84cdddf7f001a7c043cf254458a39ee696c70311558cc09ef529551944f9fc,The Old Cut,SAO PAULO,-46.686402,-23.611137,Lanches
f342a86a838069b16861dfa8f1080b1fa7a35bbf1bba005d401b7d7853fbabd0,Sukiya - Saúde,SAO PAULO,-46.639653,-23.621084,Comida Japonesa
ee5b3874eae3a7840091055bdfec1bdf75ada3b3c5646f30f3b594a5cb74e940,"Levy's Bar, Restaurante E Hamburgueria",SAO PAULO,-46.768503,-23.589902,Comida Brasileira
a08c436736df4d787994090c636e2b85c33cd82eadab47b10ce803250ee0a8af,Village Burguer,RECIFE,-34.904526,-8.028875,Lanches
41e839a231fe3a33f4714bb07f60c6d8602891fbbad812d314c33a9cd0b87de3,Cap Burguer,SAO PAULO,-46.681907,-23.556241,Lanches
4ef0d37824c7e0a0d3f293fa04eaeff6460153eedfc24377780b008c5af45f3e,Hamburgueria Barriga Cheia,SAO PAULO,-46.648729,-23.700084,Lanches
7ec9825a11cc618c1dcc2824147eb8a4c63f977f7557610914928e8dd8c8beda,Galetos Pizzaria E Restaurante,SAO PAULO,-46.668947,-23.654613,Pizza
e0902d9732a6b4eae050d3f6fe58866b620f96166ec0ece1774bd94a7e155e79,Madureira Sucos- Itaim Bibi,SAO PAULO,-46.678834,-23.581408,Comida Saudável
5114f8af97ca8482bf3e386ba10ea6f55510c5c7261ea3b05b8f615fc56457d8,Brasa Bbq,SAO PAULO,-46.706413,-23.538856,Lanches
2d29ad680f5cfcd725b20c79a10a11f0ff147357ebd6c0bd9422e6fa58940f12,Tutto Riso Risoteria,PORTO ALEGRE,-51.202746,-30.02354,Comida Italiana
23a00860238c0e263793241a268b10e9ee30d01330a4d50dae748f4703c3954e,Mr Cheney - Iguatemi,PORTO ALEGRE,-51.174951,-30.023635,Cozinha Rápida
5d0a71087acd3cf56a3eb3b61289eec7931b9f6ba2529fa683c72bd6c20dbacd,Pizzaria Corado,SAO PAULO,-46.643083,-23.553958,Pizza
6aa4f317a5fbedea38bcac2954a3052173eeacd7f7b86db8494d5ccf70741c13,Familia Yannelli - Parrilla,SAO PAULO,-46.564727,-23.552018,Comida Variada
a36e747c9331518f5ee8b17c710ba3d3c1589d5edecce3cb67ca9a51fee3d164,Fut Pizza,SAO PAULO,-46.653669,-23.665104,Pizza
e23a9a1e08f43c91b7a4e66dffc93155dac92cbc326b07eaa14bcf8d2cc5f187,O Pico Espeto Bar,SAO PAULO,-46.627586,-23.494758,Carnes
f34f85b36bcb3e9754434137469fc50a50f23a7b8e323e961ad5b17ea0da43ae,Varanda Pizza E Esfiha Brooklin,SAO PAULO,-46.679973,-23.611603,Comida Árabe
693ee0232bbf76e2e0ae4766cedc02ee1212fde42487bab7a877523b4cfacac4,Kooala Salads & Veggie,RECIFE,-34.919355,-8.034884,Comida Saudável
b733aaf4e72e7573b815a61a0efea41cf9769c7d839f7bcab3a63623dd97a7fe,Bella Gula - Bourbon Ipiranga,PORTO ALEGRE,-51.189844,-30.054783,Comida Variada
3b9cd6a852dadd6fd56365fb5cf381dcfbca3570d36acbf63c79d0b440236ff5,Piatti Pizzaria E Cantina,SAO PAULO,-46.666519,-23.625948,Pizza
ebd37afcb546f4572b3f1882854c06bb81667a22ed6f93568a0783cdd54d4955,Rei Da Pizza,SAO PAULO,-46.583673,-23.589784,Pizza
f8eaefc80073a9461eca237fe39bef81d6b40ce190e80296e94e399c24609bde,A Pizza Tomate,SAO PAULO,-46.675193,-23.558003,Pizza
980f6fc3725d08e62afc3741242f933e08c5b28a09b01bb1807b6b39330c6c86,Ki Pizza,SAO PAULO,-46.593363,-23.486935,Pizza
8a5a8838d30cf64d5309ff8662ebf5ba4eba12de73630f47573a3f20dabb8b1c,Time Food,SAO PAULO,-46.620843,-23.57679,Comida Brasileira
fba13bebbb82f2e4f5a382aad3f1e1029ec5f083da7bac5aca1118e50c02471b,Nova Una´s Pizzaria,SAO PAULO,-46.721394,-23.488831,Pizza
cc3251846390d80493ed87526866730e4f1674dcbae3571a9a67c8579c7f1379,Pastel Chef E Açai,SAO PAULO,-46.719708,-23.61399,Cozinha Rápida
455f34d880ae840459cf9ebd4c7f79bd283f8c430baeba58f872d5ae5dfb7819,Papa Lanches - Cidade Baixa,PORTO ALEGRE,-51.222421,-30.037492,Lanches
4889951fa858bf3bbda5e5c0564b45ecd1d96a0a02fbf2e987a0f6ae77d8fc0e,Domino's Pizza - Perdizes,SAO PAULO,-46.673318,-23.543043,Pizza
af229208e6667101da360a8eda158ea456c4e07cef038d2b55a199640e007569,Pizzaria Bella Ilza,PORTO ALEGRE,-51.168615,-30.062637,Pizza
5b0810355d54df4582a27747ca03059dd5f0bcb6fad57445ebc5437817d4d1b5,Pizzaria Camelo - Jardins,SAO PAULO,-46.662073,-23.57232,Pizza
7a05c4bb4ec87e4a0f23b43e8ab7b999dcd6e3b7cf9658ab21b97e4f5145dc09,Lanchonete Da Mara,SAO PAULO,-46.669029,-23.670849,Lanches
20b107c64fe00b6d8cb371e42a59213fdf1ec1e5547181249e563cca85ce97e4,Makis Place - Alto De Pinheiros,SAO PAULO,-46.717779,-23.540598,Comida Japonesa
1123790b5f23becee6bf658f7a549af31b4d4fa0e96cbecbcecb48eec6eb60bd,Subway Estação Barra Funda,SAO PAULO,-46.663579,-23.522813,Lanches
3bddde7109c2f04ef93beda4acadb28dbee0d5cb086cd6bf5f98c67bfb937eb6,D'villa Pastelaria,SAO PAULO,-46.666334,-23.751694,Lanches
83e85f9b38d0dccb2f6d38710a9fb655870d4db34f48b98adbfec1a6aea6173f,Gv Bar & Restaurante,SAO PAULO,-46.58345,-23.482148,Comida Brasileira
9220531616f53f91e3d7b7d9e265f0d37f3f75da32ff323119e1e424f6bc6958,Bella Gula - Bourbon Country,PORTO ALEGRE,-51.163054,-30.022724,Comida Variada
5de9e93f55aa616560e83e0c7bfc0ab2fc59ef2cb8389e59d73a47b229478340,La Fortunata Pizzaria,SAO PAULO,-46.641475,-23.620409,Pizza
81758389fe22db07053af15afd907d8238eb145779545ace0fb726cc8e0fefe0,Top Pot Restaurante,SAO PAULO,-46.634173,-23.555788,Comida Chinesa
569644b008e9d033fbc80c712c2f856e0a59c5ccdff5acb3253886b326c7d3b9,Applebee's - Barra Shopping Sul,PORTO ALEGRE,-51.247099,-30.083945,Lanches
9630bad7b053d35a119ecd90097899a9aa8c2913272eaf4a2c35196e8b509f45,Senhor Frango - Vila Guilherme,SAO PAULO,-46.606358,-23.504245,Carnes
825089c60c9f0fc9aac3cae19cac08f7723d48a706f40a79335b74f5d4bf11b6,Lá No Escondidinho,SAO PAULO,-46.687809,-23.609683,Comida Brasileira
1e7fbabb86e809ae62ac9fae67c1dd837c23eb3ea61772b4d2ad146eebe53a73,Casa Paris Confeitaria- Vila Andrade Ii,SAO PAULO,-46.736798,-23.631755,Doces & Bolos
fd33576af1d6799401d868a34198d24a839ebdd113898e476eb8cfc0737b7696,Sabor Caseiro,SAO PAULO,-46.618718,-23.635224,Comida Brasileira
4d070b3306244bcd14a140c57349047085626020574d8a42e6c7b79a9e11ede2,La Cabana Parrilla,SAO PAULO,-46.659799,-23.603478,Carnes
c7f63022fe354ea5f08d9e2e6204f21b5bfa52ff5b8396a4f2b72a382617354a,Pastel Gigante - Gulliver,SAO PAULO,-46.69932,-23.650029,Cozinha Rápida
c5e8ea0c5d398dd5b0e22f365a564fc7d959ac48e13696efed5e12bdc9f71528,Graffiti Pizzaria & Restaurante,SAO PAULO,-46.717884,-23.576061,Pizza
3b3ed62f47f3f3cfee286c8ab85a61933808371dd1e3f433702eaff55546679a,Amor Aos Pedaços - Moema,SAO PAULO,-46.669669,-23.607518,Doces & Bolos
4fb828c9053603f1619fe489f46b83df01378f1eef9f738494d9e25498e63c6f,Pizzaria E Restaurante Yamashiro,SAO PAULO,-46.482609,-23.602521,Pizza
287ce99db4c3c128e495561a278e1c4f5e666ee235c05948433b9afa0f280875,Pizzaria Baronesa,PORTO ALEGRE,-51.15105,-30.025326,Pizza
85172cb24cc3315b49f424d39d5974308a8e473d3ed775e5dae73735201627d6,Pizzaria Forno De Ouro,SAO PAULO,-46.735958,-23.580846,Pizza
c0e45e5203d71f58b44f83eac2fef2ece740091346a0755926093274623578d6,Mambo Tango - Açaiteria,SAO PAULO,-46.649892,-23.54531,Lanches
178878190df294bd56b726d7f4b2ff74c1c7296c9c379825ce740fb1865bce5f,Ben & Jerry's,RECIFE,-34.901426,-8.117304,Sorvetes
659a8a18adb9b3e1a3e37ac9bb93d8dc5b02a3f17e44ce35b9c89a58315c93a7,Padaria 14 De Julho,SAO PAULO,-46.645052,-23.553498,Comida Variada
458c8e077d2e49d10d79e842a95972fd6ab67b9e9c35ad2f91d800328a5823d1,Spoleto - Itaim Bibi,SAO PAULO,-46.67643,-23.585107,Comida Italiana
bc954825627e09043bdc638daf2da0c3b4cac27fbc853f27c31dd6c040464dd4,Rango Express,SAO PAULO,-46.602778,-23.463478,Comida Brasileira
df22083608cb02641db34e3a3609634c0090aea8d42a7bcfae7a5027ce275114,Bondbico,SAO PAULO,-46.610158,-23.494013,Comida Brasileira
669d02374b8e141483a865fec60960bd74ea3ad6ba51357392856f24d2c54fb6,Pizzaria & Esfiharia Sabor,SAO PAULO,-46.687205,-23.4735,Pizza
239f8b6d7ab2e3a053fd93413f0c6c8f0acba825fe3aa9ed30b0d0fc496869ff,Madrugada Burguer,RECIFE,-34.923957,-8.003298,Lanches
420dbf3efed0fb07bd63ca5e0fab10b131694beccfae791a0d066d92dc6c9786,Gaucho Grill,SAO PAULO,-46.555073,-23.555119,Comida Brasileira
b8134d731baf756613889cfc6f3042cc172da57c3ea7ecf2f85fad247dd43bd7,Go Dog,SAO PAULO,-46.693466,-23.555046,Lanches
4f61f99bf6ef3965a7541f13d41703afa9aa486881cde370397ce005814cee5c,B.lem - Jardins,SAO PAULO,-46.665523,-23.56412,Comida Portuguesa
caf1dd628a9d38c9bc76ad0c44dca1d78e43da39b25b2344c4442482dd6432b7,Mizuki Sushi,SAO PAULO,-46.576022,-23.443015,Comida Japonesa
17d162090a8d428869ed83ed86024f3f0f3e4d2eacae7c2861c0c13a4c9a4156,Delicias Da Vovo,PORTO ALEGRE,-51.208714,-30.046961,Comida Brasileira
86cc2318de92c44cc667b6a2ef305582f0c96bfd2b7d484bc41dbf19f4edd3a5,Pizza Manzalli - Alto Da Lapa,SAO PAULO,-46.708062,-23.538597,Pizza
9ba1e177228f8918b290b488ed0f49948eee00859367ebd736d9f2ee49415e01,Julia's Bar E Restaurante,SAO PAULO,-46.60002,-23.597924,Comida Brasileira
e7187ab3039ffbc8d061df6ff48983e1549ce4080b26e8bb58e6c6df9b7d1710,Genki,RECIFE,-34.89414,-8.044465,Comida Japonesa
30eb7c57478f585019bc1b6e21ac5679a136d21c13bac88e325f52ac402f0fc0,Burger 88,SAO PAULO,-46.761947,-23.656524,Lanches
4445e09cd0e68e3816c4da551c17fac8adfaa99a8637f31611a5ed9518e533c8,Bistro Du Chef,SAO PAULO,-46.648383,-23.542713,Comida Brasileira
66ccf0cbb5852d108b3ce904582d2c180f671c3e32c0d9b472c1164bd7869e74,Casa Palma Restaurante,SAO PAULO,-46.662727,-23.66051,Comida Brasileira
8c0ca177e8be152b57b091d5e20a5731333af90b45ec2e6317141f7aea7b48ed,Pizzaria 3 Reis,SAO PAULO,-46.793742,-23.670933,Pizza
7b21eda4f533b039279524f6b2c18c35d0caeb98613fceead7de36564de88537,Holy Pasta,SAO PAULO,-46.684444,-23.556598,Comida Variada
52785221cee46ebdcd4f8858496300848b7539b11f9a007f8ae4f0aa8c122519,Pizzaria California,SAO PAULO,-46.640638,-23.552313,Comida Brasileira
2ce2c87f6ba3a2882e93d1501d36ee78740894431be40fa93668a3705aa1ae31,Quinoa Real Empório  Vegano,SAO PAULO,-46.562053,-23.543703,Vegetariana           
9548ea639b9e958d8acaabc31fc8c11d48029373447da93279758fe1de8a0cdb,Hamburgonys- Jardim Germania,SAO PAULO,-46.759569,-23.660013,Lanches
6c6d9baf9f30700d79f05d1338cb239f43a23d979303ade6381e5132d7425972,Mcdonald's - Barao Itapetininga Ii,SAO PAULO,-46.639535,-23.545368,Lanches
cd5fc04f1067ee42bc8cc0a7a5069c0a28ee6cae4be59b08b34820b1abbcd503,Jamile Restaurante,SAO PAULO,-46.646338,-23.558858,Comida Contemporânea
473f87511ca3025c3cb441b5a9f1d9b7bb44e022c45540b50547853bd52de79e,J & V Disk Marmitex,SAO PAULO,-46.717031,-23.758986,Comida Brasileira
89695dee60f7eb2dea0af04b74d2307a913705b6b2662a196553f86360d8a969,Cyber Lanches,PORTO ALEGRE,-51.201292,-30.146462,Lanches
8b2e380ff5793e79d7fc2133809a9d9b4b8ca3b49e34849746709afbc92a0ec8,Q'sabores,SAO PAULO,-46.476719,-23.609602,Comida Brasileira
fac09173cbb9fc57e9c4b59859f18813433bf0e06d95279daf7d18750e034d51,Subway - Cavalhada,PORTO ALEGRE,-51.223012,-30.12541,Lanches
b6d77141308f23cf6850ecfe2ce0cd90ef2e2a3a9e617413d7d858d9f133c6a8,The Munchies,PORTO ALEGRE,-51.123238,-30.006068,Comida Alemã
331c95f42adad6a4308f76cde6ed61a1fe542e7991b3a16b73b0de8f1323215e,Burger Friends,SAO PAULO,-46.697781,-23.768044,Lanches
990757f53eb7d9f7d13df0db5d002443db731496e85285575abf88ab32895a9b,Casa Europa,SAO PAULO,-46.677584,-23.566643,Comida Italiana
533d600cb8d1c90d1b5963f53906035492ce0b1e00c17a1da9e250a1bd49ca74,Piola - Jardins,SAO PAULO,-46.667138,-23.562708,Pizza
90e0d6c8b5a461cf6da366e4a22afe707e90fa350e7e42643f35855e682c3493,Restaurante Bom Sabor,SAO PAULO,-46.496577,-23.582186,Comida Variada
92464c076a5cc46c7f5925c085e8fe4aae6d513867a55233fc79db941104a32d,Torre Das Pizzas,SAO PAULO,-46.657688,-23.530038,Pizza
e160855078d06387ccd16c38a77670217bf1768776099885db37435767d496e9,Mr. Cheff,RECIFE,-34.904009,-8.121014,Comida Saudável
54ff07f62e703333c89f3bba5bceba6f9f311753e71708b154b0d7054022da6f,Mcdonald's - Av Mutinga,SAO PAULO,-46.729889,-23.488538,Lanches
05d122494579bc645e1db472c3cb2f61e67fa3aef34ace7e7fac658ee36de10c,Sherlock & Dog Augusta,SAO PAULO,-46.657532,-23.555535,Lanches
b9fc5ed7cad8727ce387d68ffdfd5053cada8569d4843111f72355cb866ab675,Restaurante Petisco De Minas,SAO PAULO,-46.695619,-23.617627,Pizza
ae017ee884099574998da51b5375b771dc6c0d7a87f43f3e44861a2e095e4915,Pizzaria E Esfiharia Palmares Ltda,SAO PAULO,-46.706909,-23.757444,Pizza
dab85c44f957c03202f484a2ad1c994f47d577c37fc5e22843c484f558f83c19,Nosso  Point,SAO PAULO,-46.391838,-23.543844,Lanches
10199a7edc49a0198d4fa4816eb28c3d8b725687395f53cf02246620a4d8dbdd,Macunaíma - Graças,RECIFE,-34.899043,-8.051346,Pizza
0cfcd019fb036e29c488a274c4a24e8ca137ae69452706036a0ae08dc4f657eb,Tobiti Gelateria & Cafeteria,SAO PAULO,-46.644526,-23.483806,Cozinha Rápida
9f4f15e907d25524ef19cc1f12ed5052b7c665453f37d327767a55941489b50a,China In Box - Moinhos De Vento,PORTO ALEGRE,-51.204984,-30.032563,Comida Chinesa
25d85aaf6594b2eba88cd28e172c2d874dcec80b9ca60ffbe1e35db8e00a04ec,Vovó Kel São Paulo,SAO PAULO,-46.573358,-23.549633,Salgados
bd3971f096750af9468b2274cb65236f35a5265d9245ffe32d50a299d388135c,Dicez,SAO PAULO,-46.691009,-23.545448,Lanches
7b49efa46967eb67973085459c74f1fa9b8406e865f8218dcc9bd0cb629047c4,Amor Aos Pedaços - Vila Mariana,SAO PAULO,-46.643467,-23.588066,Doces & Bolos
b9ac5ff2d0d3d500138a93ec65fc55f1275ae423217adf57d7261c0bc551b238,Super Panquecas,SAO PAULO,-46.576013,-23.560133,Cozinha Rápida
fa1dc60e61195c4a11b39970dbde1d43a401ac473e098f3c43734fcd4336a26d,Preciatta Esfiharia E Pizzaria,SAO PAULO,-46.573498,-23.559463,Comida Árabe
f43a43916b217b22c978d4d7553dceae01b11dd1c1d01334bbcb0e55d22a23d6,Cozinha Das Comadres,RECIFE,-34.953998,-8.028098,Comida Brasileira
86784798bdb2b47a1bb1a6df6e94126655b09d34d41a35146ff58c6377656bb8,Bella Morano Pizzeria,PORTO ALEGRE,-51.195314,-30.022867,Pizza
0d13ba0d4172ab5bb64d1e9576269f2feef9e32b96a328beb9452fe1b5e95036,Sabor De Prosa Pernambucano,RECIFE,-34.910894,-8.135334,Comida Brasileira
7e348f440a82f08168c5981cfed8fa9b4c0a46b3c2751d2457d62fc7291c3776,Xpress Burguer,SAO PAULO,-46.750639,-23.640483,Lanches
0fab7b7fa9dd47dc129871159ff43c1e1a2234ef9f03574ec61b62ac74b6573c,Sublime,SAO PAULO,-46.560324,-23.534377,Comida Brasileira
1d07855b5944c759f4fb6521a062102f7947b7a6cc8068b7a94aab9eca0e0578,Mega Box Boa Viagem,RECIFE,-34.884227,-8.090103,Comida Brasileira
6bd4999265c11026ab66ac1a164980beba3e7589bb280ef1711841fb715ed954,Ray Burguer,SAO PAULO,-46.690988,-23.460752,Lanches
420deb04319de3eba108473c1f930368a99f96eb4281f8bd6317e147afbaa64e,Akemi Atsushi,SAO PAULO,-46.591762,-23.635404,Comida Japonesa
d4f5adbbf52f864a1d656a4f8e0c85cab1a86523dace1ab45671fe26054f6aca,Vivenda Do Camarão - Interlagos,SAO PAULO,-46.679415,-23.660073,Frutos Do Mar
9d050acf7baa64badf2a0433999330c00fad36f714cfc2fd9cae9b918793f8ca,São Paulo Tokyo,SAO PAULO,-46.648497,-23.596548,Comida Japonesa
772b582abace06261d33abad555619a120209f1cf17209be5587bae005af1890,Yakisoba Factory - Jabaquara,SAO PAULO,-46.644039,-23.634729,Comida Chinesa
c5a40e845a47fd15b4903a3ef2794db1bc643936940fdc4102d9a6e1a721d455,Jotinha Salgados,SAO PAULO,-46.743214,-23.571469,Salgados
cdfe65669a7e123f604b5be139eee5b07f742bd41fd056436467ec8cdebffd60,Ben & Jerry's,SAO PAULO,-46.697502,-23.622218,Sorvetes
1edbf4b05b287e182ffd49eacc27c5f16e290ebc9acdd409b97148a1e95a1389,Black Dog - Santana,SAO PAULO,-46.639432,-23.503301,Cozinha Rápida
6c911dbb230de353fd242e336200803e11115fba9ad51dd5dc0b953dc53a34a6,Madero Sushi Lounge,SAO PAULO,-46.72686,-23.603123,Comida Japonesa
7bcfcec3502a792d88f9db6ac26fc341630b1cdfc174d82d9cf40db3389b6dcf,Toca Da Tapioca Restaurante,SAO PAULO,-46.5742,-23.553257,Comida Brasileira
0d82cea6abf493c3775e42974dad1a6d74f60a3893ce643e5ea911b1cea14f04,Pizzaria Saborear,SAO PAULO,-46.655278,-23.529148,Pizza
72daea59bbd4f8d21fcafd20a13a9bf1cfaf37d780398e743045769a0668cc04,Bon Jour Comfort Food - Zs,RECIFE,-34.883279,-8.091618,Comida Saudável
e6121c336a5e146c8ee723d4ee848b139884d0f74c18073557bf4593c14fe86d,Kazuki Sushi,RECIFE,-34.895171,-8.03452,Comida Japonesa
b24b8c129f417a3ef7c4e72192371e21583714712d88e5bd576d7054f803536c,Soparia São Paulo - Sopas & Caldos,SAO PAULO,-46.683799,-23.543433,Comida Saudável
bab11b9648f39236dc750d87b2f390b25217de7d667701c2ae73ec230c3fb7b6,Sassá Lanches,RECIFE,-34.940395,-8.125169,Lanches
443937b57df213635aa39377714de1325e0470c9cd0830ac7df1894b0ff2eae7,Gendai - Shopping Itaquera,SAO PAULO,-46.46274,-23.541577,Comida Japonesa
9aa6a1df8be36e3adab831d519a74c61d5839ff0a805d3c260237d91437a74cd,La Romana,RECIFE,-34.900565,-8.038117,Pizza
ae1e0ffedf02f4d70929e315022e72ca5b7e974b915d73da989a743ff96a16ae,Burger Shop,SAO PAULO,-46.626993,-23.5069,Lanches
37ea7536c602415e83f316ab2549cb1e75665a280eeb7b82a9ae9ecf76ec6b3a,Pizzaria A Gabrielly,SAO PAULO,-46.657565,-23.530274,Pizza
82ff5b0eb90148cd43f2c5c7c9bde99b54b507f46d312111ca7eac38b299a0bf,Baroni Lanches,PORTO ALEGRE,-51.222405,-30.06056,Lanches
0f8bceb1733b22440c678b73c41f175115857aa8d48f7e26a15c4949bb5fc381,Pizzaria Da Nonna,PORTO ALEGRE,-51.204696,-30.062298,Pizza
89585d012853c05a0c9188fcbf3cfe8c3c0dc18f76829d53e54abfab1ab82ea2,Avalanche's,PORTO ALEGRE,-51.169521,-30.077746,Lanches
5fa87f0dbd39af1b7d720210fbcbdc993c4a1d25b58020206564bf5e63047773,Pimenta Preta,PORTO ALEGRE,-51.173684,-30.007952,Cozinha Rápida
116627c0f42ddcc632573689892cb93ca27a394b83a206161124f702827b28a4,Very Food Delivery,SAO PAULO,-46.583598,-23.561415,Comida Brasileira
47e9e6e78d321eb00409bae008690ddddf9189aee21c1a6be60a659dbdf28db7,Muralha Da China,PORTO ALEGRE,-51.224916,-30.060232,Comida Chinesa
e5a03f442e55418fd8c5a0a75fbc78023be3a39f28c3f3aaa3a116672a5db0df,Pizza Hut - Shopping Metrô Itaquera,SAO PAULO,-46.470674,-23.539909,Pizza
aabd4f329d2d3cdc78d4de3434de117e0ca72f1443aee78f238dfce6c01840b4,Comida Caseira Delivery,SAO PAULO,-46.683684,-23.60189,Comida Brasileira
e79f7d0cab93180b46171cf475c5aecfcd7aef6683f55cc963bd25767a01e81f,Empório Cozeart,RECIFE,-34.897761,-8.121326,Comida Italiana
8b0a8c1a30affe06d8bfdd220574812175dc932011b40c53d5a5129a0f1ceab3,China In Box - Zona Norte,PORTO ALEGRE,-51.179116,-30.024201,Comida Chinesa
d294cbd04bbd3092cc72624b2afc56a802e7fad20f89428f9be9f59f6eaff76f,Fideli Pizzas,SAO PAULO,-46.652249,-23.648334,Pizza
b64b5edf00f87e762b44469824346ed7503ab66972d12e4cb65458e689a27dd6,Flying Sushi - Vila Mariana,SAO PAULO,-46.642618,-23.59769,Comida Japonesa
a09d4db3b6bb26d2dbfb8e19de8c3b0fbaf20d384fe5d8d83d3b3cd63cd13600,Restaurante Tensai,SAO PAULO,-46.613818,-23.500873,Comida Japonesa
328b5d42f37f7d968fb9428e8b959f8ebff1b3d2b66d962d63478948fdd15867,Bode Do Paraiba,RECIFE,-34.95796,-8.040238,Comida Brasileira
192233856284ef04e29db6248508efb31493cd1fbeff711ecdb9f8d3af8b0bc5,Lascou-se Burguer E Comidinhas,SAO PAULO,-46.789187,-23.65029,Comida Variada
bd1b5aed419881edbe0237336993869f4b7e49c4a4654aa23ee645072123e7c0,Pizzaria Da Vinci Estrada Do Campo Limpo,SAO PAULO,-46.757668,-23.620503,Pizza
2b37db1982919b54f4a9a984161fa724f94c3f3e6f9ae8e5845bb8751294c6ce,Mister Rabbit,SAO PAULO,-46.610728,-23.495917,Comida Variada
a56cbc73fc8edada7002f1f9f548e1daad60740d0a1ac18ef7e83f7ba6923b0e,Mr. Cheney Morumbi Town,SAO PAULO,-46.736798,-23.631755,Doces & Bolos
9b042f1083069cb3fb7ed54739bafa5037b1b68c2a2560b12f2b891ca1196985,Pizzaria Milhas,SAO PAULO,-46.784809,-23.69933,Pizza
4daf228a35229094eaf376b4b360e620a965b21d9ca93ad14fcc8400da946d93,Pizzaria Elvas,SAO PAULO,-46.601213,-23.588999,Pizza
65e007c2ee698ce46baa702bdc0407d76d56178113a77e416738ca34ac9c528a,Gran Jalapeño Mexican Food,SAO PAULO,-46.597663,-23.560898,Comida Mexicana
b05e005cab9e9babc35bb4bd1e16b0f0c68368b6366ba46810b831ff31baa333,Pizzeria Piarello,SAO PAULO,-46.670985,-23.541378,Pizza
86b891772777865a9e46feb1420f9cbb62cb08e8a865270130ffe7195c85a0f2,Fiqfit Gourmet Breakfast,SAO PAULO,-46.676784,-23.59984,Comida Saudável
7f0debfb149981147d4962b60c3f8865b5acbe938fef0d01f02518215f17b197,X- Lanches Artur Alvim,SAO PAULO,-46.498844,-23.543251,Lanches
365ff7767fe3eccf37bbc71c06b50ec7122694f33613fd792578ac39d7676a27,Delivery Petit Mania,SAO PAULO,-46.518612,-23.595511,Comida Brasileira
41d3326b05ada05b8c3a0e81164501e97e63a9d15fb64dc0bb7521ba076f854e,Bo'a Rotisserie,SAO PAULO,-46.57625,-23.478033,Comida Brasileira
a041ed632addd89dd6ce7d128577e72171116646518fd38ba04889d13b1f2f58,Piaceri Della Pizza,SAO PAULO,-46.630158,-23.490335,Pizza
3d353531d82432a47286213e7b675a85fdf105a126346755ba5eb7111bb81a70,Pots Pokes E Sashimi,PORTO ALEGRE,-51.211789,-30.03302,Comida Japonesa
d0954088197b046eb85776cabc325df56bd501aa52c7c15133a27a8dc0c5bc89,Pizzaria Mamma Mia,SAO PAULO,-46.607208,-23.58344,Pizza
36e7d86fa1a0fc025139f814eeb51ecaba199477c046ec2512912af49584c808,History Burger,SAO PAULO,-46.711694,-23.634283,Lanches
8f15c43ade5b32dfce4e77be8a14dc548e98b11c44cae338da2e05c338f996ae,Firenzi Pizzaria,SAO PAULO,-46.711634,-23.669618,Pizza
0511d7f07be4c6864f0348841a9698fe1b6082bc44f25bf1db40a1d5ce7fa7b2,Point Da Batata,SAO PAULO,-46.497097,-23.532194,Lanches
cd9c8b08d69dc108b95de34930e3f4428e95bd0bf11574cb1819f5ef8836d4c9,M Burguer,PORTO ALEGRE,-51.173808,-30.022171,Lanches
773718b0188a141582cf51ccd0043166a1175550ab98d86c23a316c097db3853,Kandahali,SAO PAULO,-46.658853,-23.665018,Comida Árabe
966aa39a46d0eaf94cfe96b9b0afb878863224df7f7f479643e1be2469499bb2,Pizzaria Zuiani,SAO PAULO,-46.484402,-23.494861,Pizza
d3e437a56d573178f84d10b277dd6c14bb0dd8660ee1d4376f28656abbc3f66e,Taverna Medieval Hambúrguer,SAO PAULO,-46.643737,-23.591732,Lanches
28d921e400b574db98e119450b640d817fda09e5b219161c8ab39320cdf34b97,Pizzaria Seo Anastacio,SAO PAULO,-46.717756,-23.514527,Pizza
be9caa595479846bfc4e2c4819dfa14e844920b5514aafdd4953fcd3abd60cb4,Pizzaria Novo Sabor,SAO PAULO,-46.6939,-23.744644,Pizza
3828b96126e875a0d34c58c5ce876b7e7e50e0c92d5b1f6c2855e10ae0ec04c2,Restaurante E Lanchonete Las Chicas,SAO PAULO,-46.468892,-23.50896,Lanches
c825ed58aebd8d8bfde76585ad4f3c4b3871848defc044080f333f900a367d44,Johnnie's,RECIFE,-34.905209,-8.134084,Lanches
b91303d07f40ae87c4cda7e7a96c825e7edb4d5a7a6e75701e28ff7d8688c9ff,Blackssoba,SAO PAULO,-46.58842,-23.486843,Comida Chinesa
f71d997ceaf64bfd84f8701db910bd7c4e73bdc0642d105cfee48d25dc6e4632,Q-burger Higienópolis,SAO PAULO,-46.655507,-23.539747,Lanches
bbbfb19e6132f50efa4191500e476922a55b9e724038a4ad18335c7951625029,Yasbar,SAO PAULO,-46.609837,-23.49029,Comida Brasileira
96248614c7de876d4906d2ca121a7ce39a8620de42b7d69f735cb191fb9f8f3b,Temaki Ya - Pinheiros,SAO PAULO,-46.681989,-23.558403,Comida Japonesa
cf35c36a3b6a54a16475cb7e7d5386a5acfe25034463d6a352c200901eea0c73,Maria Escaleira,SAO PAULO,-46.685794,-23.565995,Comida Contemporânea
fc010569f6f4b9e7ae62bd611099c532ee53fa7da9277f5b5db3ef2c8c0b2be0,Pizzaria E Restaurante Feijão De Corda,SAO PAULO,-46.584743,-23.586929,Comida Brasileira
c95a9e99f618a068439cea22bcbb4424478a508d4aa76cc944d198e0eaae3cef,Lutitos Restaurante E Lanchonete,SAO PAULO,-46.512147,-23.512105,Cozinha Rápida
48fc680bcf06413aee191dc38c35c95205ecbaa6ae80c0b850f91809bd3d993d,Boali - Morumbi Shopping,SAO PAULO,-46.698459,-23.622518,Comida Saudável
96c5554b2cbfc96a5efb271a93fb9b4063e7d0ebe1ed6c4e9993082000be7523,The Black Beef Vila Olimpia,SAO PAULO,-46.686906,-23.595266,Lanches
24fdf4cc9bb58acafdb1778a3e9fb2315f6d7ee743f163ac2c8b99b09ede9661,Crepebrasil.com,SAO PAULO,-46.684928,-23.473948,Comida Francesa
fad3f611f1ad16704a97f26e3c49ae1806e0e3d5b4712bab2caaa382113822e5,Domino's Pizza - Morumbi,SAO PAULO,-46.73568,-23.625846,Pizza
c2744f9cf6142d42882034444761c5122305ea14faa6f6ca279b083e3309b9cf,Pizzaria Poppellutchu,SAO PAULO,-46.69787,-23.633843,Pizza
67906bf6a272d19b6fdfe2287ae97a606d4c8188f8df34c221820ef990cf3ad7,Mini Delicia's,RECIFE,-34.928415,-8.052557,Salgados
e1c9d623692924aed2d236f3bb23e7c7a328d13099d53f5ac7261933b46ebe6f,Forneria Portugalia,SAO PAULO,-46.652055,-23.524699,Pizza
53a2984854e09a9aa6774d3d609ac1c760d4cddda279e625bc81296e3242e076,All Khaled Esfihas E Kibes,SAO PAULO,-46.586138,-23.573949,Comida Árabe
e88eac4978a7cfa5c20734ff04af5853775968983b9cb225f2f5c9518be9518d,Dogão De Maringá - Hot Dog's Prensados,SAO PAULO,-46.655875,-23.596705,Lanches
11a1cceb59ae8420a31ceeb15eb10395438d376680c5a82bfa3d212c84ce66d2,Top Burguer,PORTO ALEGRE,-51.195248,-29.977013,Lanches
8b669393f913fb390dcae2c0ed7a0f45b56c45e0667d6e406c84b55031e2f866,Pizza Hut - Shopping Metrô Santa Cruz,SAO PAULO,-46.63655,-23.597882,Pizza
bbbc573e7f855f3eba4a865edfa40ac4d89f575f8afaeb835f8f029f4e7d10d3,Big Dog,SAO PAULO,-46.721112,-23.589001,Lanches
d5cf3cd5c543fbe1dc79d0a736b7b5ee0e69b5696668c40f132a7e3aec32ae0c,Torre Da Esfiha,SAO PAULO,-46.573995,-23.557808,Comida Árabe
335272aac93d9fbf404c76d3f8cc469ca3679b5dce9a91b136d32233bdafd830,Restaurante E Pastelaria Rô,SAO PAULO,-46.587988,-23.630534,Lanches
d5630a7c0b0483e0e48c1cf873ec4515c48f9296bc90510683800f20e2e19ee9,Sukiya - Mooca,SAO PAULO,-46.598493,-23.55565,Comida Japonesa
a7ce29826f25d6dda3ff89eed36a0710b0849bf72a9256808f6242955d07cc88,011 A Base,SAO PAULO,-46.696539,-23.551028,Lanches
744a6cebaa4887767b9c2ac83535ed3a7c4484a87616eda8091c003d359f558b,Padaria Iracema,SAO PAULO,-46.653498,-23.534153,Comida Variada
10df4cd0a7763ff64bc6b0bd60a66c74fccfd415a4fda192daaa0d57f2b24740,Villa Foria,RECIFE,-34.893693,-8.045321,Pizza
6b410fa5808b66635c07f78abbefcd578f06c2ac01bb9f37bf8f70f4770170cb,Modo Mio Pizzaria,SAO PAULO,-46.676629,-23.594198,Pizza
c5a173a91cab61ecd5196644a866ab8a10281d98dbf5e0c4409658018771fe46,Sao Judas Tadeu Churrasco E Pizza,SAO PAULO,-46.461191,-23.497801,Pizza
87d7d584854b20f7f1a98f5963c84c67fac1f5eb8be1b7e683e27335c0169076,Pizzaria Milloni,SAO PAULO,-46.670749,-23.644089,Pizza
a4d5f31f82e8721604120618ee6a96b7b12d22598eb19a2798dc8255a031cf5d,Casa Da Nona,SAO PAULO,-46.631751,-23.663059,Comida Brasileira
8ce1748b554d2486f38e4fa857013fa58bb1628361969d179cb0ef0aff12b74e,Matsuya - Moema,SAO PAULO,-46.665569,-23.612808,Comida Japonesa
a9ebf01da13e505295538c0e11de45998b530ef807522e057324e0429782779b,Pizzaria E Esfihas Souza,SAO PAULO,-46.587223,-23.49506,Pizza
0e2a0be2b58c18d8d5ffdf4783ce07138d62cafdf393482bd3b0ab0f155e89d7,Fast Forno E Fogão Delivery,SAO PAULO,-46.517187,-23.546751,Comida Brasileira
f2d259698714416a1b724a5595f930c69d9044246955ba2260dfe623f323c0d4,Temakeria & Cia,SAO PAULO,-46.635278,-23.503288,Comida Japonesa
7dc46ac689afe9ab6725e3830803003f149bb9bf19291155ca3fdcfc6abe7515,Tomato Pizzaria,SAO PAULO,-46.738027,-23.604228,Pizza
048a7f772235ba08e4fe6f8d48d0ce895897250da86c7fd92c7ce4b68e9acdbc,Seringueira Pizzaria,SAO PAULO,-46.674553,-23.536143,Pizza
c814409a027e5150ddbba73b5a9caba91bfa8d7be1d4bb116473a0775d94fa9c,Alleviare,SAO PAULO,-46.591595,-23.456267,Comida Italiana
c596ba9300c07a55f2c9a8e89056d76a57c01b5f945403e2d2ce085f5988afc4,Flying Sushi - Aclimação,SAO PAULO,-46.632228,-23.566008,Comida Japonesa
4c91055b19c03db2855bc93513946327ca2206de709c3171f9809d16093a1f86,Vivenda Do Camarão - West Plaza,SAO PAULO,-46.674003,-23.527832,Frutos Do Mar
8310efd3a9f267df0c500d0cb8417aa3cb3449d8a73f51c5ad1ca43db234b4e5,Ton Ton -  Esfiharia E Pizzaria,SAO PAULO,-46.714628,-23.645038,Pizza
db8911aa28ee534aa880850963730a408ec3e0a689f583508d5460a6cc7278e7,Barretos Pizzaria,SAO PAULO,-46.647743,-23.554758,Pizza
eda6d0315b6531f4d2d0b692e0d809b2947613a6c1817dfc50368d62802a0284,Kamzu Cookie Shop,SAO PAULO,-46.660248,-23.568958,Doces & Bolos
6b5cc95ee5ada310d0387560cd6cf653d75c8d833c6cb3563324a97240f5e911,Pizzaria Veneza,SAO PAULO,-46.417652,-23.553764,Pizza
7ef0384659162b4bacbda7b49e55ab81fcd8974c87045afcd76ce025f3704a02,Restaurante E Pizzaria Brunna & Lorenna,SAO PAULO,-46.660139,-23.610208,Comida Brasileira
17fd7a90d22d7bfa66b95ab6421959d4b82ff6e1a17cb8947c1a49dbcb606b28,Oba Pizzas Grande Centro,PORTO ALEGRE,-51.213484,-30.040182,Pizza
93bf090ed97b922a321d814f488491eee90e5f8df1967e609e3004fa5630c7b0,Pizzaria Denner,SAO PAULO,-46.638554,-23.702784,Pizza
11e7fc48aef11a9936a4f2774c7b559ac9ca8aee7edc760bbb82e1bfff2ee666,Hashtag Express,SAO PAULO,-46.621898,-23.482623,Comida Variada
adac2f5ad3497d7730676f0ef7167ba1d9dd3032ec13029ea889b35bb631a2ef,La Piadina Cucina Italiana,SAO PAULO,-46.678834,-23.595398,Comida Italiana
489b79316e91fd3ea6e6a2d68863a47de234c5ef62361f01260864eb50465b56,Jb Refeicoes E Espetos,SAO PAULO,-46.511732,-23.560334,Comida Variada
4d5441acf6b3f4cbb3319dc911b09afd2128d70730e6c410a28cdee9599b32b1,The Fifties - Vila Olímpia,SAO PAULO,-46.689406,-23.593749,Lanches
41b0ae9e7db29ef84db7afd019419cb858908c275d7aa7b198e85a051ac752ea,Banana Burger,SAO PAULO,-46.591053,-23.544058,Lanches
07812db86b3aa6eae02072493e57b33d26a44cceda736dab5cb3c2c72236ac23,Consulado Gaúcho,SAO PAULO,-46.672567,-23.619447,Lanches
793db088ccb0f3061a26d56bff3c97d74a67936484191edbcd72a53ede94c6bb,Garagem Do Acai,SAO PAULO,-46.679978,-23.455348,Açaí
db6ffee2e6c2035afa991ae7fb2ee6e49fe06dee912d88ebfc653d239f75eeb1,Restaurante Panela Véia,SAO PAULO,-46.585248,-23.492655,Comida Brasileira
cf981c61a1c081fc7218aeabb01df517d784f88295d40e622f6a26e59ff49aea,Pw Marmitex,SAO PAULO,-46.660789,-23.678964,Comida Brasileira
1a13925b080c55841331836ee8d1dc9581ca8780cabe3456614671c634b31b26,Ateliê Das Pizzas,SAO PAULO,-46.6172,-23.561088,Pizza
2bf6fd1ef85db3ec60f24802053217df1f3fa8936a6f17b38662d47b29d42020,Dona Cecilia House Gourmet,SAO PAULO,-46.766416,-23.627792,Comida Contemporânea
a6ef2eb34afee177f18d58348c360cca28931c88ffaa84e55176bdc922f0e69d,Annas - Sushi Delivery,RECIFE,-34.894591,-8.02605,Comida Japonesa
0b3f2fb7dec0c21033b0c15a78456f1a4c492e82bdcfb119abbf212617ad476f,Oxi Temakeria Sushi Bar,SAO PAULO,-46.515841,-23.521577,Comida Japonesa
35e46b0d4831ecea4dd142bf6cb57521539a617692d96ec6c2fb0ffb6d39ad0b,Dany Du Pizzaria E Esfiharia,SAO PAULO,-46.577115,-23.588974,Comida Italiana
2b3a36c915d64f1f0436362cbcbc6d318ea29e0657cb0bc2200c40dba1c9e1f7,Ponto Chic - Perdizes,SAO PAULO,-46.663598,-23.53172,Lanches
f400748d18f3b5b7a15faeb2e5df1f5df47a739bed1179b5dc4c2ae7241eef9d,Sabor Do Ypiranga,SAO PAULO,-46.612538,-23.592668,Comida Brasileira
143c8f14c413f65f0bedbc20cb9a2d61938b459fe6ade7f6aee357df7e96df58,Fatto Pane,SAO PAULO,-46.673374,-23.601708,Lanches
53b916ab149a1f7cdb38f2fde7257f8660b45773124350e9cfd88ef47e3dca49,Rei Da Pizza - Liberdade,SAO PAULO,-46.632488,-23.556968,Pizza
620efd465b320e3d112a8d4d2bbe8075cfc7e9c4f29c9ce24611a27eda32b581,Restaurante Albany,SAO PAULO,-46.653343,-23.462302,Comida Brasileira
ccf437e6e340f6e076b761c9e1b3f2ed05edd1d104fe7a543146d9d6ea921565,E! Sucos,PORTO ALEGRE,-51.201267,-30.024908,Comida Saudável
5da86b6d270c2535948ec29b213559692ffaeb42ca885820097dd4a946a4f4a0,Delivery G.e,SAO PAULO,-46.780875,-23.64828,Cozinha Rápida
7cd099a6b089d905d06c504f007d330b38d64bec881f4cd63de960e5cd7400f1,Subway - Amador,SAO PAULO,-46.524457,-23.522729,Lanches
d282bc181fe80d22d5d15546414584bc769186289b3c901934d7b9b516d7e050,Joaquina Grill,SAO PAULO,-46.591558,-23.504943,Marmita
47db762c35dc021136832950fa284735d4db766167ca862ad72f476908d462e9,Tartareria São Paulo,SAO PAULO,-46.692679,-23.657523,Comida Contemporânea
0c5c14ef21cdff5b5030ec4438bb12ad40a4bb738003608994a826756439ad65,Shari Sushi Delivery,SAO PAULO,-46.628623,-23.558058,Comida Japonesa
456f3ea8f073e3343f1da1250ce667cad185ff1c8399c362021e881395c5d3bf,Pense Leve - Jardim Sp,RECIFE,-34.937558,-8.079839,Comida Saudável
9108c21d49e37c9350f107f9ff5ed1cc7e41ad1ddacc96ab0ffbe4d7793653c2,Família Delivery,SAO PAULO,-46.400299,-23.553026,Comida Brasileira
6dc999ee4597896d14b0e29f08a196f3b871cbbfce64848471ab1b58480a3dfc,Barraco Bar E Restaurante,RECIFE,-34.891937,-8.086347,Comida Brasileira
c79e3885ea3f2eace378e8ef7d0666c0cd927d09a3c9a96f6873c2384c267d8f,The Original 508 Burger,SAO PAULO,-46.617938,-23.481313,Comida Brasileira
28dcc812792c9788e1e9e9c923f51f1d1bd9ca7cef832c0db2b27b53b99b9243,Disk Marmitex Família,SAO PAULO,-46.424807,-23.521729,Cozinha Rápida
e4f952fd46abb7a1e6f70268c9234724613ac24d693d0206b95ad78736fb562e,Mitsumaki Temakeria E Sushi Bar,SAO PAULO,-46.78399,-23.645033,Comida Japonesa
1948d359d315705a4f1758a2035b58d379e99738e9afbf14b5716b8b442fc28b,Eskenta Restaurante E Bar,SAO PAULO,-46.692603,-23.564166,Comida Brasileira
32a275d6b3655035bf3d622867493167efe6e8c1cdc28515184c8b1c93b44478,Arabie,SAO PAULO,-46.675144,-23.579168,Comida Árabe
f8788fcbd853e71f56758e598b4e696740abba26f4c2335df9791990b3ad65c8,Café Com Tapioca,SAO PAULO,-46.649966,-23.547048,Comida Brasileira
47b3a924a33035e885be2ee977889caeb59f1fa74f9cfc16b14968628c0f470b,Natureba Delivery,PORTO ALEGRE,-51.224571,-30.026752,Comida Saudável
f5b9cfca13429f845c0c033622be9b2f7d1a43524a7afc012103ed17d3e83615,Grill Da Mooca,SAO PAULO,-46.592493,-23.561508,Comida Brasileira
bf0d29cf814a1cec94a5e9a39ef4562bd05db8d0d16a4bd12680792e6f87a070,Deu-fome,SAO PAULO,-46.494412,-23.562524,Comida Brasileira
2f7b9a4f974f237c15deefd1ecf05606e3e50457f0a800d8288e7a45d64c8500,Bioqualittà Empório Natural,SAO PAULO,-46.672316,-23.543026,Vegetariana           
c7d7073799bc4e2961c61c4dc1a3d2e764ddb187981d16630a4da78f681d548c,Ceata Pizzaria,SAO PAULO,-46.538653,-23.590069,Pizza
a78b529690308dbf65ccf26952c79edfba0e5e038981e679de65d6680a45f983,Saj Restaurante Santana,SAO PAULO,-46.631594,-23.500636,Comida Árabe
f42b300caf6aa363bb7c49bf0f81c1be4faddb6af6032fa0e360ef62c1c354af,Ben & Jerry's,SAO PAULO,-46.66081,-23.558759,Sorvetes
9ae273d305d607e1e83d1e294f4f5844a086d42ad7a87d51336dd268368db37a,Bebedeira Delivery,SAO PAULO,-46.679651,-23.622708,Bebidas
3e8ec6c0cbbca726a6b1b94571c862db9fc349cb3a3f72e5753360998bdfbb08,Tem.maki&beer,RECIFE,-34.919057,-8.033473,Comida Japonesa
c232fd8433f472742d3505a11a1179a38c9977468e7d875f666ba977aec47c3a,Pizzaria E Esfiharia Tucuna,SAO PAULO,-46.761188,-23.507647,Comida Brasileira
654a34abccd8e22e466bbc1ab3ef404e1d9a4849cc8be5f23f1ec96d17b30f60,Bon Do Kupstas,SAO PAULO,-46.563743,-23.597784,Comida Variada
dc04830c292473c65e2817f4cad62c34e11aa3c46696d8eefeb7f9027e418e35,Barberburger,SAO PAULO,-46.732564,-23.662273,Lanches
80d8003b8022c4b58de5d49ac44213e03db96262cf5d75c5d39ed7bbc2b1a257,Portal Das Pizzas,SAO PAULO,-46.589228,-23.507123,Pizza
94ebb84fea260fe8770499a301a1783ba2585898c55fdd97d884e57bf4e4b8ef,Makis Place - Vila Suzana,SAO PAULO,-46.473475,-23.670333,Comida Japonesa
e471c8c47221846fcb19906449115365d284fd218ed1593f60c54c59288a80db,Paellas Pepe,SAO PAULO,-46.607113,-23.590111,Frutos Do Mar
c2f9f405f91f81dc17c2b3c4d431c5bb778bcf7cc4488dfd5ec6e120039e82f1,Marmitex Delivery,SAO PAULO,-46.645077,-23.595783,Comida Brasileira
6079965b9d1d03254b3b7e4510c2d5cb36e26f55f045c2404f0f109a5a7faadf,Mcdonald's - Carrefour Aricanduva,SAO PAULO,-46.516521,-23.56228,Lanches
68b3a619c40de4ff2e1d274eef340918aa607731b4f5986235327ea4fcd092b1,Pizzaria E Esfiharia Dom Tulio,SAO PAULO,-46.730941,-23.490372,Pizza
7988a93b04a754c2fcd94458fc60f074e3be8ac5b222249cb84b85c3a5ad46de,Oca De Savoia - Ipiranga Pizza,PORTO ALEGRE,-51.231962,-30.04703,Comida Italiana
27a91d98056f337aca78a0715e578195238896a10a6f6e72d5c15d41d445caa6,Pizza Crek - Granja Julieta,SAO PAULO,-46.710599,-23.634873,Pizza
6eff4ea82b571011305c0f92ca49c25364d953c393ea1c106e07aa90e2a4e77e,Só Pizzas,PORTO ALEGRE,-51.190717,-30.057568,Pizza
8d0b52efc4b0478d0e5e36f861605bbc5258ec5c856031f0ca628bb440229fbd,Q-burger Perdizes,SAO PAULO,-46.669518,-23.539488,Lanches
026b00f78c01dccabcf595793fe3aa379f5c4122aca5e26a0c92e1202e5946b3,Reis Burguer,SAO PAULO,-46.740439,-23.652048,Lanches
7d8b99c7d51e4e389f498f8584647f40726381094d6ab4424612e7dc97195392,Tutti Pizza - Santana,SAO PAULO,-46.633193,-23.491876,Pizza
22e4d23796c5714c3d50a160e4f38408bf8cf426b841ef64cf2e792567dd05b1,Restaurante Puro Tempero,SAO PAULO,-46.706263,-23.627413,Comida Brasileira
f8cef674f0351c8a5eb22a243429a413b1404dc4efbffea19c3bdc34badae58e,Tayo Culinária Japonesa,SAO PAULO,-46.7324,-23.628003,Comida Japonesa
1533fb83eb2da650921cb9160c1f7c591eab4d8fa0d83e0d665660abe6ed4f1f,The Gust,SAO PAULO,-46.487692,-23.522039,Comida Brasileira
c7ec685d0216154d9727de5fde00dee04d0675ab64883457c8c74ca30c03a752,Pizza Mais,SAO PAULO,-46.608793,-23.622784,Pizza
24abcb1898e1073dd59721d650c4475e2c4d46fec365c2e52d57a1cf51854606,Torii Temaki,SAO PAULO,-46.691909,-23.608744,Comida Japonesa
00a915d0ca064656c2ffedd78a4f3f0f003a621c32aa42f5faa7faf6609f87e5,Fernandes Pizzaria,SAO PAULO,-46.579315,-23.489823,Pizza
4a4bb7f4eb32b4c7de6feacf1fa130d1e22dd043b4526e29caa397cf6bd3200e,Confraria,RECIFE,-34.891299,-8.03415,Frutos Do Mar
c4020db0e1d169a018711e6105d1c3c441bbd1ceefcdf529d4c07b9542d8a3ae,King's Temaki Zona Norte,RECIFE,-34.895171,-8.03452,Comida Japonesa
29a6b94e383c8c15fc5d45202cff753ced762f2270fccaaf2092cd0d4b066ec5,Zona Sul Lanches,PORTO ALEGRE,-51.218445,-30.133594,Lanches
dba4abce46770fb8ccc86a51034167fd449158dd857e59db3ea628d382c70210,Tirol,PORTO ALEGRE,-51.226308,-30.059913,Carnes
f64ccf16357abef9c35a7046ccb8c0f42d2463b8014973e86c3ecb23a8321105,The Brownie Factory Shopping Recife,RECIFE,-34.904922,-8.118958,Doces & Bolos
170b3e06b67d099bef68fe7d9181cd9dcc3494530b3e6a5c3ec49b9d4e416a2b,Ala Minuta - Top Beef,PORTO ALEGRE,-51.165268,-30.013545,Cozinha Rápida
821b672734f6ab9aaceab6474074f44b7955305aa1ce1a455f3169371c05c359,Lm09 - Hamburgueria,SAO PAULO,-46.664244,-23.602748,Lanches
21a4d50ea8799693444d276b00b08c8ac2765a4508582f50d506c00fa75e9ae6,Só Lasanha,SAO PAULO,-46.663273,-23.505853,Comida Italiana
b2708b224070c23b79240d4febe032d251ce8f273d06d0ecde70e19bdc24ab7e,Choppburguer,RECIFE,-34.875891,-8.047003,Comida Brasileira
2214539296a10e0d796733587deb29fc2805bb05af70912427161e4bbba622fe,Armazém Casa Grande,SAO PAULO,-46.539542,-23.561761,Comida Variada
d68991f7f481a93c9f8a0682cc8908e0aa321e8e0c81bae1c21e38ba0dcd5f03,Pizzaria Sweet Dreams,SAO PAULO,-46.750639,-23.640483,Pizza
baf8964660db5a819de65f63679fe4ff06152b4f1d4937e41381d32c9e890001,Pizzaria Pede Mais,SAO PAULO,-46.735654,-23.62858,Pizza
de85d164d7048c52286df92548d2956736e5641cf23503209164e8e7591de8a4,Mcdonald's - Braz Leme,SAO PAULO,-46.63945,-23.504514,Lanches
848fa8e1ee7c89206bd7ab29c079e4edd601c24fe0b94524f1c177c183a180e0,Sassá Sushi - Vila Hamburguesa,SAO PAULO,-46.731811,-23.542897,Comida Japonesa
2d4ce92ec24e140523940d9943ca7a3502ad7215c8ed1e5652ce2072dfac996a,Restaurante E Pizzaria D Bella Grill,SAO PAULO,-46.669874,-23.696659,Comida Brasileira
e70a039e31d4433079c79df77ed42e569e18182dcdafa6087faf8ba8fca006c5,Biroska Du Matuto,RECIFE,-34.905246,-8.05386,Comida Variada
709b6c95ecdb04978ebfb564f13a8253b456f7815204b156c4aa75cec5d656fc,Pizzaria Casa Nossa Il,SAO PAULO,-46.592573,-23.617249,Pizza
51435fa06d8bc07f224b03cb929be2094b0d50c09e769c54e268bfb55541580d,Pizza Prime - Morumbi,SAO PAULO,-46.736903,-23.612188,Pizza
33695a72ebd368b39e673c8d043c2a9f3a8a729e4622d6dd2d4e81358bdd5d04,Reet Namaste,SAO PAULO,-46.671664,-23.603793,Comida Indiana
2d9a3ea0e6c554bcbbb0b6af257cd229e246e985e1af7d76ec16562aa7124800,Dindas Burguer's,SAO PAULO,-46.476719,-23.609602,Lanches
f704905e6e5ba80621f7c8b5825452cec530a87860117ca904ba0c623e1157e2,Espetinho Guaianases,SAO PAULO,-46.410787,-23.541956,Comida Brasileira
35aef9682254ce35a3af24309a1ab99e6a0ef24d42d0c6f7129b809b8a71b898,Matsuo Sushi,SAO PAULO,-46.570913,-23.52998,Comida Japonesa
9a58a55ef14c88ed94a2467262ac202d518d3afbfbcc4e0cef2f6f5acb74ec4a,Original Da Granja Galeteria,SAO PAULO,-46.652163,-23.581758,Comida Variada
abfba34bed9752013b77857cd51f2889a715f8725ba7c58b3f079d19e6f67c91,La Tivoli,SAO PAULO,-46.570488,-23.541333,Pizza
847d65d52b221975015d1bf871a4ca69082fc6d5245f1aa09c261f4d2ecff65a,Strike Grill,SAO PAULO,-46.715119,-23.653143,Comida Brasileira
dd5f995a81e62095b524622c97728081e4d39d846421acd5641a172c51b9a0e8,Meu Sushi,SAO PAULO,-46.657575,-23.570418,Comida Japonesa
325ad2382a18e2c8e25d0781bd85616f7e7192e23130251e07ec1c5a79b250d8,Lanchonete Bom Sabor,SAO PAULO,-46.447933,-23.587607,Lanches
33a33bfb27e8f6d61a6fbdd3ba8a0b556dbc8c3a299d5f64da45b1c91a247a09,Boali - Eldorado,SAO PAULO,-46.695918,-23.573732,Comida Saudável
6c71e3471cd46ba30e6889d9960768ceb0821f19939b898343a05e7f6b2eea44,Restaurante Bom Apetite,SAO PAULO,-46.514844,-23.544851,Comida Brasileira
3d2aadc671d5444d7dc82b313640556930972488e8c72c0acd66e6cbea6e7ad1,Pizzaria Bella Gulla,SAO PAULO,-46.698039,-23.732464,Pizza
ffa29f9f2ae59180a1b4892cecca43e0084761bb10c3a4f861ad957d8a3c7573,Nova Mediterrâneo Restaurante,SAO PAULO,-46.718634,-23.579848,Comida Brasileira
a8f5e6370b45c4817985db7157f111426af40b884f60c0213c916740d4c8336a,Vitórias Lanches Show De Delícias,SAO PAULO,-46.741281,-23.655708,Comida Brasileira
d780cc98b25677fd306cce5c647bf983ed5aea846659098d827c6a7476f5bc11,Domino's Pizza - Chácara Klabin,SAO PAULO,-46.631018,-23.595098,Pizza
725726ed963706aecd9616239adf7d43f4eaaf31e909c50fbf0176563c8484e5,Marcu's Pizzaria,SAO PAULO,-46.664743,-23.469413,Pizza
9ae15fe95e675cd7ac4bc072c8ff6f524b36232054765eeacafdccfdb6477366,Subway - Rua Das Flechas,SAO PAULO,-46.672348,-23.646837,Lanches
e6b57022f5ab5fc2a0a70af3e46dabe8ed261f03d75410c94778394d51bbbf18,Subway - Vila Mascote,SAO PAULO,-46.663166,-23.647444,Lanches
4f0cb23721aec717ac84dafd6cd42dd220a4581cfbfe6a8097515a24869e5943,Kiai Sushi Itaim,SAO PAULO,-46.677951,-23.593583,Comida Japonesa
37094bb1fbd58e3dc0d9c778415f36c530096ac7f88e1f3ab07495d1ddb96d25,Galeteria Casa Do Marques,PORTO ALEGRE,-51.238114,-30.096365,Carnes
dd8f9df296016a1bc3a5b54b9781f03788315b87b0817481a6953ee257f08264,Pizzaria Mamalu,SAO PAULO,-46.672459,-23.656989,Pizza
bd6e0c968451743e95c50002a92bfa66d2430a9284af92aa87f9db6abe5311c4,Máfia Do Dog,PORTO ALEGRE,-51.172025,-30.01476,Lanches
9fc4b391c9c8a89327a34d5c4a22be49ac03eb3d6bba8a3535691e6ad8923089,Delícias Helô,SAO PAULO,-46.556698,-23.593539,Salgados
8f5c68e0fa0b44e60ff1e506b899cfbc2aea931dfe90c6dc2173312dd000a99c,Pizzaria Monte Verde - Brooklin,SAO PAULO,-46.683954,-23.611492,Pizza
be149cdd0d38e288d7f8c46006e6468b135df4ea3d9afb2b3ae3c42edca71af7,Guadalupe Mexican Food,SAO PAULO,-46.564727,-23.552018,Comida Mexicana
4bf0db474b08b67d72e94c375efbed6a453da7cca2d3c577a2400f9847c0846c,Agastache Almoço E Lanches,SAO PAULO,-46.649798,-23.47638,Comida Variada
bd20e531ff27708c601b5b71a7a49e6d01663bd9d99f618ac27dc1bba0ac90ab,Jirau Pizzaria,SAO PAULO,-46.694699,-23.633469,Pizza
e9b54d576db4541b5558213b130ad5de6249724c9e7da1c0871083809e267e7d,Del Sole Pizzaria,SAO PAULO,-46.689703,-23.738666,Pizza
e0f0c71923d58d913e0c7fabc4cd249e41726b2982a58e286aeacf412f69eb54,Mega Esfiha Leolpoldina,SAO PAULO,-46.736905,-23.5236,Pizza
8820fb567aa4b6aee7ce880a12fed1fc0bd0863967b4817bf735a9fc3762a376,La Pizza Mia - Auxiliadora,PORTO ALEGRE,-51.187522,-30.022556,Pizza
6e346558739cc5962bab59c404aa1b69f0bd5f60efea265d3679b54ab549c101,Aster Burger Artesanal,SAO PAULO,-46.574548,-23.489583,Lanches
3679c58816f3c2dc3a6943b6d9fc33dfa530a6c8f8e6cffdffd28abb1bc84d64,Espetos Grill,SAO PAULO,-46.643362,-23.535366,Carnes
e49cc5d241b5e63dd6020f325a6fa2fa4f87fcc6928e4884f3c5d30fc9470abf,Hambúrgueria Do Mineiro,SAO PAULO,-46.657053,-23.555853,Lanches
e6ca3c9fedf39282090d16ce056aa7ddf5e1e5d567123c55d86ce5eaee16265f,Imperador Grill & Espeto,SAO PAULO,-46.443867,-23.513521,Comida Brasileira
98b090f28de2f8888e77840bdea9c15d3ad53210f0fbcea8ebd819fe26f3a85f,Habib's - Assis Brasil,PORTO ALEGRE,-51.137338,-30.004791,Lanches
265c82212a05903a9e254caf9acd37ebc01b774a17fc1773de73d1234f9b96ad,Subway - Ary Tarrago,PORTO ALEGRE,-51.134026,-30.03099,Lanches
c6956fbe1bc0d3596d146d521ecda08c6d1f261b365ba6474caf9d1b55794d1a,Pizzaria Norais,SAO PAULO,-46.643293,-23.601415,Pizza
ec2b0d61620e6808d37ee14272c03e15c3f52e17ebaeba209cafb9dd4fb413c7,Bistrot Em Casa,SAO PAULO,-46.708644,-23.696246,Comida Variada
82ea2ffb6445a6319d7f104693a3c300f898f4f83762a481d41efdfa93db0950,Parada Brothers Açaí E Lanchonete,SAO PAULO,-46.529649,-23.609713,Lanches
e052834d88b554b86a3ba0d598a0940e297f41e44c2dc18b4dd87cbf8326954b,Uni Açai Sorocaba,SAO PAULO,-46.563585,-23.548343,Sorvetes
46176fa0cc62ff2296599118e5ec10f017f906a97c18e020b50cb8706f41d1e7,Nato´s Pizzaria,RECIFE,-34.914958,-8.027178,Pizza
2d7e7a00558ad84c898bfba39cced108c08044c7d0483be8d472183df35c1f43,Now Burger,SAO PAULO,-46.680893,-23.538528,Lanches
9e3c578915df0a01d394e9efaa7760bb12f2308bf90e267e87b3f1e69456b08c,Mazé Refeições,SAO PAULO,-46.443854,-23.513341,Comida Brasileira
eaabf0feeb6b871ce7225058e51e4d17cc1a8435d9b1a5467afe28b316174b9e,Camarão E Cia - Paço Alfândega,RECIFE,-34.874096,-8.064326,Comida Brasileira
d96ee09abbace76078b5c9335574d270d05943c080cb56d1562913a0ad76fc40,Croasonho - Moema,SAO PAULO,-46.663534,-23.607457,Lanches
46747a6a345a20723d1f808bfb9b41ebdd0c67f55f125aeb33e3cc24678bc81e,Kali Kamel,SAO PAULO,-46.713311,-23.568996,Comida Árabe
50e3cb2920b671e37c6dee09ffd66ef2b9d7409b2c782e82fce06a1da5bcb930,Açaí Original Do Pará,RECIFE,-34.923029,-8.094424,Lanches
957e8784bde08fe571d59754a90c786a19104b927b229381f4f6ad0e75a7b44d,Bela Lagunna,SAO PAULO,-46.624253,-23.572358,Pizza
bc77d0c0f5bf060f1841d54c9f1f2904ce6d1e0214aba4b32c3e4aab533ac2cc,Café Do Duque - Café E Bistrô,PORTO ALEGRE,-51.227726,-30.033514,Comida Brasileira
74fd5fedc3cb332db3cea605828a9335f8d89ea00beab2107138e7f481d28ff1,Doce Divino,SAO PAULO,-46.487797,-23.550734,Doces & Bolos
1b760ec63678836f59c9ca7eb1d90996424064c91b5718bb67651f0923613b92,Hamburgueria E Bistro Terrara,SAO PAULO,-46.696769,-23.688154,Lanches
15d943eb2cb5c8de32ed200b0315fe39102f83ff9c20e5030cba603743b15462,Taco Mania Imirim,SAO PAULO,-46.65158,-23.488538,Comida Mexicana
4c038ca463ffd6139697bc8b374716e00bf5fc6e59a3566b5cd014f53e72201c,Mcdonald's - Ana Rosa,SAO PAULO,-46.637795,-23.583443,Lanches
67d9481bb5ea8536343c6c963369727053c42d2b53816eb7410dd762d93cffd4,Meats Grill Express,SAO PAULO,-46.659066,-23.559089,Cozinha Rápida
4e6f00521d3bdd506690ea6db61241da24c45e4dba89f9899462b425027d203f,Pizzaria Da Praça,SAO PAULO,-46.481172,-23.564794,Pizza
044e3fa1b840d714486bdd0da98ce7f223394fe5dbe359c31b6e44da08e8bb0c,Espetos Ferreira,SAO PAULO,-46.73349,-23.527273,Carnes
69e2b5a1b85330bb609e9c00824f721a11d0bac8971a32a474fd3d8f8aa63c74,Pizzaria & Churrascaria Dois Irmãos,RECIFE,-34.935947,-8.099111,Pizza
a69f969faee276ef39ace7f5af3550eec7b63af14084887ae872c3c4de13ff4d,Time Dos Salgados,SAO PAULO,-46.563687,-23.480715,Salgados
a73c73efbad349bb32a292df2ba82772795482f5c47c23a47a81a8deeceb787a,Hecho En Mexico,SAO PAULO,-46.673857,-23.583208,Comida Mexicana
96263078a3958d80dbeb63d4b57a77a3ef555d706324bb162f3e7dca80e84f1b,Ancho Burguer Areias,RECIFE,-34.925766,-8.093151,Lanches
9e5bcf9c519cca7b0eb6dd91b17a2bae4c53831744e6e35c2cfff438542abb85,Karpa De Ouro,RECIFE,-34.947287,-8.043235,Comida Japonesa
4dbb995841664d5ba847a67e9ca78afcd22aedf6499c3f3e1db1810edd5b2e9a,Rock'n'roll Burger - Lapa,SAO PAULO,-46.697884,-23.527552,Lanches
2697727fb5d5414afa54b56f084e5b1454ed9f10ace0d75f24ee41f40819338c,Ligue Esfiha Kalik - Perdizes,SAO PAULO,-46.671648,-23.528706,Comida Árabe
6c78b997d5eae62b44b44194c8d3cb9fd0f1c2970216721bc182ae3d00df4df7,Sushi Arte - Aclimação,SAO PAULO,-46.622633,-23.572058,Comida Japonesa
3a96e632195cd5c21c9bd98f98615c2176f9cfc6a526d7adcb07445848816352,Café Journal,SAO PAULO,-46.659459,-23.608703,Comida Contemporânea
fdb4ecad12f24f1f5bb7622d4e8a1cf1df71b783808643a94f6b71afa464b91a,Burger Joint New York,SAO PAULO,-46.559996,-23.56259,Lanches
0b42f239d64a8a28ed5e6542ec798851febd3f6daa1f160312a8f8f85d2d387a,Torreon Mexican Food,SAO PAULO,-46.594523,-23.554028,Comida Mexicana
65b56ead0a2c4680b366e028a4b71ca8782db5099b0c4c518e572aa76639ead8,Skina Pizzaria E Chopperia,SAO PAULO,-46.609763,-23.504253,Comida Variada
3739e38b1271dbdd57458bba43dd7a610819e808b257501d2093715271560333,Mcdonald's - Inajar De Sousa,SAO PAULO,-46.671945,-23.478485,Lanches
4b982100f866de0754499c1ce4567e507ec0580f7f14226fa87cab4100b6409f,Santo Gosto,SAO PAULO,-46.66109,-23.49614,Comida Variada
9c89fb37da8d72bab5e8bfaaa1dc23a8c2c19c056ed857f21551eb463356d7a1,Benvinda Delivery - Zona Norte,RECIFE,-34.898272,-8.041281,Pizza
058acec2c1a371ba3077dc4c1ab212e0369997e7e91f5a58a2948f77eba6fda2,Dora's Bar-pizza & Burger,SAO PAULO,-46.706102,-23.525297,Pizza
8d209a7a7f28b2774ebcd549164d9ac41b5430d626152ff96a2605716a22a14f,Vip Sushi 1 Peça = R$1,SAO PAULO,-46.668704,-23.613107,Comida Japonesa
cc891e4ee69e15435df32f1270e7c7dbf654fa4945daa1ba50af37cf0a2a83ba,A Liga Gelada - Parada Inglesa,SAO PAULO,-46.610378,-23.491273,Bebidas
d391116596edb54e98b8cc76cefd5939230665469209c7296e3f57195f6f88c1,Nica S Pizzas,SAO PAULO,-46.650693,-23.464212,Pizza
40d487f10ddd3b11a626188f75fa7e656e8f69ef478a271ff742fee9376c0510,Espaço Cultural 512,PORTO ALEGRE,-51.224758,-30.042159,Comida Brasileira
628536d2eea07b259e9abac5f89d3219ffaa0e06bd1db104e109fa46b4396ad2,Pastel Croc 30,SAO PAULO,-46.640513,-23.5935,Lanches
d44bfccaa1eb1d809a18b118f30b48977d12a243510f3b53950cd51a73aebbac,Subway - Boa Viagem,RECIFE,-34.901081,-8.123351,Lanches
fce72b7f283927de75f1a607d60b96a6d22fe0389250ead7c337a6ccc252e46b,Pastello Morumbi,SAO PAULO,-46.736999,-23.634183,Salgados
39bd175ae14da2d3bbd1cc01c63d2bc0abc98773fb7efb7c535835e8a3ce7548,Hop Burger,SAO PAULO,-46.598248,-23.592439,Lanches
2b9fde1314517fb26eed0904e56e63519c14df3d9e569124f623ed4cdbfe50de,Bánh Mì Vietnam,SAO PAULO,-46.648988,-23.56305,Comida Asiática
50a16fa9fbd3b40203fdfdd5e451251a71d676fe3c7b6afc346456985f0d18cd,Big X Picanha - Santana,SAO PAULO,-46.609837,-23.49029,Lanches
3b1bc99c335fdc5ce61a7a616b33e3a67d54efdf4c4933b7df636494f9f7f3ef,Bar E Lanches Tufãozinho,SAO PAULO,-46.627568,-23.562613,Lanches
fc3d55de84f31fd7a6abbb40bf99d1fb5ff441717a9be7d938196ad1943d64bc,Pizzaria Franciscanos,SAO PAULO,-46.530834,-23.551549,Pizza
a9ab8698cd14d3bb6748644979e587835590849c8b6eee7d641a49fe081a9d7f,Sabor Nobre,SAO PAULO,-46.521065,-23.543763,Comida Variada
e4a4510c2a3791c68a21fb43806481d38464a50973657fb5ff670c78a792e8a4,Pizzaria Atlântico - Paissandu,RECIFE,-34.89849,-8.060358,Pizza
01086b6ec5eea1e58e719016c82a940f2a928eacddd0e563af2411b8be023589,Tutti Pizza - Perdizes,SAO PAULO,-46.673513,-23.535478,Pizza
2198d0b6d7739c6f9b22fa36e326582b9c3e629e5c43d320f8f803f827bee82e,Bella Madalena,SAO PAULO,-46.697031,-23.555043,Pizza
d4357b874abe0ca3a3ddeb617f50dd5f141aa873d927de7687f58d3920a161ef,Restaurante Dona Dê,SAO PAULO,-46.708464,-23.729564,Comida Brasileira
eda9083868fdfc4dfa6b50c2b3e4409bacddc10dd71acc35a6a887b9e282b9f5,Nova Ramos Comida Brasileira,SAO PAULO,-46.578051,-23.556134,Comida Brasileira
50954033eb4bc609d35e417b623c73e650a66146a49d77cd3f020d61035ff059,Parada Obrigatória,SAO PAULO,-46.711089,-23.729248,Comida Variada
d5bb47709b5ea9d797a937b0a82728a3490c7845551200434bde3f10c0abccff,Pastelaria Ki Delicia,SAO PAULO,-46.517087,-23.578114,Comida Brasileira
3cb088063e74d30b8ced8333488d01f5640957c563b979b53cccbb0ca8063bb4,A Tropicana,SAO PAULO,-46.643148,-23.577713,Comida Saudável
d137e0de1e57508164f5d25f8ed0fc285d1e7f2a4615a1df0041dac341672ada,Ninja Burger,SAO PAULO,-46.523659,-23.529289,Lanches
27fdb04a0352c8c7bbbe56ad4b7c4a8eb2dd9bac6bde76fef374f72b1298ebea,Monchito Beer E Burger,PORTO ALEGRE,-51.209796,-30.030999,Lanches
12cbd0d851eb77e35be05ed7f66999873546a32b9ec4c990ee0789ea35d5783c,Lú Salgados,SAO PAULO,-46.603598,-23.462874,Salgados
da61ec40b58a11e68a629ec47afc5435768d0bde486f6f7d3606cbd1bd2fabcc,Hiper Pizza,SAO PAULO,-46.551848,-23.558174,Pizza
7c89db04be09098e37b4df7f0470f47cfdf513fa8d39d9a7250f711849c4ef1c,Los Sombreros Mex-tex & Paleteria,SAO PAULO,-46.609248,-23.492912,Comida Mexicana
af09ad1c33c003b9c9c31ab3c596ce735e1ceba2517104c18024c7b26fc66f6a,Jalisco Esfiharia,SAO PAULO,-46.563625,-23.56431,Comida Árabe
2c1de7f8b14a731f665b8034f2dcb3aa65eeff812723df4e2f83b64130ba7706,Yunika Kaiten Sushi,RECIFE,-34.904446,-8.032233,Comida Japonesa
0c9fd7eeef18136f69e4c2e4b3a0f05f2809449c4805616bc946bd3797f72605,Pizzaria Mirano,SAO PAULO,-46.751059,-23.553972,Pizza
b4b28cfbda6a073912484875ae88390fb5104750fef7bd4991feef4f7e5d09e1,Pizzaria E Esfiharia Bello Sabore,SAO PAULO,-46.595828,-23.503863,Pizza
fe417ce34f12a34242edcf1ae0087c7d01f6e7b9e4c2c451326d365f3fdc9e3a,Pastelaria Do Tadeu,SAO PAULO,-46.513344,-23.500373,Cozinha Rápida
3aca4ea36f37b46820a8ad973f0e4b003967f46aa59f4e1cd31928abbf72b86b,Dona Carlot Café & Bistrô,SAO PAULO,-46.572005,-23.548293,Comida Variada
2389e17da4d25c30024220e7a03a2f18eb766f1e2cb460bc796c1a03f1ac8e32,Sonatura,PORTO ALEGRE,-51.238114,-30.096365,Comida Saudável
2a5dafba01c684de0a5287b28e12db02dbc2da494f972908c7a15bcfd5f211af,Creare Pizzaria,RECIFE,-34.914459,-8.019561,Pizza
50dbcb472fd1633304e8bb95e33350bbc5b4df4dfa048a8ab5d0cc4591ff1c02,Delícias Delastrez,SAO PAULO,-46.535695,-23.600786,Salgados
688c09019d7e8bb5b4e2d07f3229f69c6ce939bc8b5c5cd988152a161cd94987,Ba Tche Batata,PORTO ALEGRE,-51.223152,-30.042768,Comida Variada
63fe4982ca779b86dbf075ef3f5a38c60885680b95eb12c6ed59fddae8c56801,And Comida Caseira,SAO PAULO,-46.69399,-23.472198,Comida Brasileira
976e8ccddf1454ea7abbb92372c0a1f64ada9054549d9008e41f126a23ebb758,São Paulo Pizzas,SAO PAULO,-46.752076,-23.647704,Pizza
7c8f4f08ff7f74ecfe9453f42384f47360c6edff909340a323ecfd00210cfb96,Pirados Por Gordices,SAO PAULO,-46.428562,-23.510066,Comida Variada
018e0d685345293c1a1b5689fba46e32d281e1a7278f594c91e2f31de536af8e,Mercadão Sanduicheria,RECIFE,-34.903859,-8.124436,Lanches
bf8b06e4f92fa8360e10ff5799087747c21c20f3a8cbf068d4fd5198c55168ab,Rhai Sushi,SAO PAULO,-46.615858,-23.461928,Comida Japonesa
0b628884dd55af0e08f6e7aba396834930d5ae2e748f01db892036a93ec22f7c,All In . Burger (itaim),SAO PAULO,-46.678489,-23.582463,Lanches
49c603c66da2bca8c6c9e79f40293481b09405d6753f6ac293b056bb349cc830,Habib's - M Boi Mirim,SAO PAULO,-46.78438,-23.718375,Lanches
c751b6e5f1fc785463e8e94f03b5b80db5adbeb372ec0c599a3210349771e78d,Restaurante Cozinha Gaúcha,SAO PAULO,-46.473199,-23.538304,Salgados
a52a71cce4852f2fba0c7dba8e4e27c102a939e5e1ff77306d78b2cca24309e7,Frangostoso,SAO PAULO,-46.694181,-23.708687,Comida Variada
219b35c56c84fe78738b1688bf3f902329c5280850979656cc75829f5190f1d9,Restaurante Grão De Feijão,SAO PAULO,-46.663429,-23.686769,Comida Variada
5164c311a492413d0f7ff845a3510450b4eac4e03ca4f379a2cb6fafd3ee9260,O Chapeiro,SAO PAULO,-46.682742,-23.539873,Lanches
e04af7903207f0978f504522493bcf42904128cf91199334f26d90b7eac7aeec,Yoshibo Sushi Delivery,SAO PAULO,-46.760126,-23.626889,Comida Japonesa
ba551d571bc451a43bd42ea9bae138e19183882817a950ce253397edf598f4fa,China In Box - Pinheiros,SAO PAULO,-46.684809,-23.566458,Comida Chinesa
8afea0e6f3604a0028bab03a38eeff6eb8f7c0742d63c3d0f95c0739d5064c85,Pizzaria Dom Pato 1°,SAO PAULO,-46.647328,-23.524288,Pizza
bb7388b46a9517ba769c1c5bc9aad17e2acf7cea85ded121a06fba170e0fd0f7,Bilu's Bar,SAO PAULO,-46.542478,-23.551561,Comida Brasileira
86747f92776a8508073ca9ba77a027923a34fdf5f2590831de0788443505859f,Mariposa,RECIFE,-34.890726,-8.085986,Comida Variada
0b04927939952a289512c904bdacb8407c70e30ec43b62a3fd699835deb12c62,Na Praça Espaço Gourmet,RECIFE,-34.920054,-8.035248,Comida Brasileira
df4133a10d7894df35636a84f4839300e56b6709e933bea80205bf3dabfcde61,Piti&cia Pizzaria Delivery,SAO PAULO,-46.751926,-23.601028,Pizza
1318b4e857cc01a5c0ddee65cc6117e957401d68a603ba8fa46a02544da046b5,Magic Chicken Vila Monumento,SAO PAULO,-46.618448,-23.577973,Comida Variada
ba9d0ac5af5758a04eda5de5e05b5a2e8470ce2940c3e6e48c610f5d54d45761,Yakissoba Mania,SAO PAULO,-46.631548,-23.475463,Comida Chinesa
6bc0ceadf2f01e090b85bca0a3eab7f6220ad70d1892c32aaec0915d6380ef00,Casa Santo Antonio,SAO PAULO,-46.711729,-23.638608,Comida Italiana
9a69ea8a0106772066dba947562fc4deefba7519131b94c5ca48e46443e57e9e,Hiroshi Temakeria,RECIFE,-34.947509,-8.117786,Comida Japonesa
12224cde6b62dc9893b9b7406405db77cd64c52707f95ee05304e741b15e3667,Restaurante Bom De Minas,SAO PAULO,-46.690179,-23.661264,Comida Brasileira
6d15ed6a2f0cf3893c86d194d09948a8ead8b635d68d3369666e17789282b276,Balanceado Trend,PORTO ALEGRE,-51.231962,-30.04703,Comida Brasileira
684b163ccad5a76a61e6cc19f47d769d868eab902d60be3be08ba298fe1c782a,Pizzaria Família Bressane,SAO PAULO,-46.747416,-23.553515,Pizza
4ea64f1f996cb1903475cd064dd61b8c8ad25a73b0a9f4d17e1d2790c2d8a73e,Turkish Doner Kebab,SAO PAULO,-46.664757,-23.562739,Comida Árabe
f508d020223e4445c197009169ad4ade464ecc84f87e3a5afe34bb10ebe9eacb,Bella Pizza Sp,SAO PAULO,-46.677717,-23.597576,Pizza
fb32c8e9d296f9981e473a3243037f5837f9b797d56aa0c4d730d668b622e33b,Jeri Pizza,SAO PAULO,-46.779722,-23.693328,Pizza
1172b59466f8e214ac1da1ebf448b4a84770b6a50e377c5f1711838b296efc92,Restaurante Lanchonete Flor Do Satélite,SAO PAULO,-46.464087,-23.607104,Comida Variada
ffde8ab2279b106a02f3b2b699c580766a40ef56e8e014759daed8c9f3d8723b,Pizzaria La-zamba Ii,SAO PAULO,-46.747387,-23.495556,Pizza
12b54ed9d5179252a9b7a3890170f88fee7891aa69e5ebd55c11f43a6ae2e2da,Pizzaria União,SAO PAULO,-46.749155,-23.57832,Pizza
a2084b4c204f8df998a07a45c076ea80c3fb552dafa8084a1f70d63dac188c88,Point Do Peixe E Açaí,SAO PAULO,-46.459057,-23.506909,Pizza
1f61b609bbbac2388ee356e0fc88a7d7569191a2c422b19f82b7446f7eab7211,Pizzaria Luana,SAO PAULO,-46.769424,-23.655528,Pizza
71ceea85a49d336331333c9b032deb9c609977e0f7ae5871fea80daf25d073d8,Vivenda Do Camarão - Shopping Light,SAO PAULO,-46.637858,-23.543538,Frutos Do Mar
750f37650176089976993b48a1d083f575f9c4864263ef82600f5822886c3209,Flag House Santana,SAO PAULO,-46.629188,-23.480798,Lanches
55fb15242c4975a2261cec3763c2f36e562982a24e370be9bedf875156ae33e0,Sí Señor - Santana,SAO PAULO,-46.634927,-23.501708,Comida Mexicana
57bfa18ab33f86d3819971bed370e483e10995a549ab032a0c30c5a491081f21,Tutti Pizza - Água Rasa,SAO PAULO,-46.574428,-23.561609,Pizza
c055a13de8ddc3ecc6c5f32e28af7b6bac19eacab5432cfa6fedd5a24f4babfc,Dom Natural,SAO PAULO,-46.489619,-23.509409,Comida Brasileira
c008b9e6dffd550eaec90159279c35a3647c0e985dbf6503818ccd773c89ce57,Pizzaria Zorzanello,SAO PAULO,-46.639533,-23.487913,Pizza
471a44a3a3091d0a73a79672ef205989910e10447a98a20773df8699a06ab1ba,Kpop Chicken,SAO PAULO,-46.638716,-23.599062,Comida Asiática
48a1ff0a670513e2834cf687cb3b87d055932d87a39a7b655bb5f01131bf18da,Mai Sushi,SAO PAULO,-46.707989,-23.526429,Comida Japonesa
28dcfb7b7114820dab0313d2c6142fd136bec8c1a9768e9c9309ae3eac5c7525,Sulina Churrascaria E Pizzaria,SAO PAULO,-46.657639,-23.638474,Pizza
c72db8f65f37e0e3f34a735a9be0c25f13300c03a4db38506b4f7623f02061ee,Domino's Pizza - Boa Viagem,RECIFE,-34.891482,-8.110994,Pizza
b1be6a811b57eaacac78ab7a5cd6a1b6dd85276a240ccdb6ae5bf0c10b3b21b2,Dona Dita,SAO PAULO,-46.594978,-23.450408,Comida Brasileira
a16496e802f9cfef8a84400c44b3df1cf9adcacbf2d636045f6a181ea8b4c1d0,Burger Mash,SAO PAULO,-46.56349,-23.553108,Lanches
fc12f033a48f20bde55986a3e7614658518b2cf3e575d8017043c5cc32908a80,Salvatore,SAO PAULO,-46.697597,-23.594604,Comida Italiana
eb8aa66ce66c2ba4e08039026a8f68ff51203361dad3ad3f6251e1401b16f3c8,Gostinho De Casa,SAO PAULO,-46.66762,-23.623767,Comida Brasileira
ad4dfaf7d48301f9c71ee2dc81c610dc0ceb5d0c00c03ed86e05beae84acecb8,Casa Garabed - Unidade Ii,SAO PAULO,-46.62099,-23.477922,Comida Árabe
2f243d8f2b73664adc8bf7bb05e3f2ad4a4ea22676aba1c4116d2a4e9acfc658,Super Burguer,RECIFE,-34.92678,-8.027497,Lanches
f666be5d354c6c0d7cb718e1d2eeb701bc8f7975a812a4cc8743266b631eb488,Pizzaria Predilleta,SAO PAULO,-46.621933,-23.577478,Pizza
88a2ceffca02ba467b83041791612b339f0da23a98aa4b9bcabc14da35f33fda,Bar E Lanches Estadão,SAO PAULO,-46.642322,-23.54901,Lanches
c4be8d736792ffb92d9fd98fc47b77bbd3a50052c8f4e5c9916742e6ddc80fd1,Seo Gomes - Pinheiros,SAO PAULO,-46.690173,-23.567589,Comida Brasileira
709828c1eada4d001035507d69f4dafaeeed220a447c022971a7b1a3afe16d60,Meu Kebab Restaurante E Lanchonete,SAO PAULO,-46.640663,-23.546533,Comida Árabe
01d51384fdf93423f30f59f7e81e1f85220bb713ada31d06a2832ad09ab48e99,Sushi Seninha - Santana,PORTO ALEGRE,-51.208371,-30.037071,Comida Japonesa
f08432c97b982d25cc23874a29ae348b471052b7556ce71c2c293a0c3c4a7c56,Vila Conte - Cozinha Internacional,SAO PAULO,-46.665734,-23.604328,Comida Italiana
053972cd713a90c3c7523c76fdeb7be50db31e9ff221cf9aeddb7198cde65248,Xis Calota,PORTO ALEGRE,-51.151554,-30.022227,Lanches
e51172350972e3b2d7f550ad55a710e106b0c57fd2d546cd360b073118a92a6b,Arabetto,SAO PAULO,-46.694714,-23.526019,Comida Árabe
e55a9c7b52cd2446c0e5238ff8ae2606e01c5154450659e02ad84bb77405d2bb,Ice By Nice,SAO PAULO,-46.66889,-23.536103,Sorvetes
d8174db35402ce9596a4cffc3344106a69d931068843e523fe8ab801bee655cf,Azuma Sushi,SAO PAULO,-46.506352,-23.528414,Comida Japonesa
aab33008be4f5d35759f52bc7978709f244d0805232da7edc7f1e8b80e0c39fa,Mega Lanches,SAO PAULO,-46.728996,-23.619668,Lanches
428eabf7282c5a8a5668f6c5f37e90a0c74d939caf55c0d5800979874e520692,Restaurante Fazendinha,SAO PAULO,-46.615288,-23.459533,Comida Brasileira
0504a25889e1f34aa7bc1b6f2f48b7a593048d8004d0f655dbca65747f0c2fe5,Espetinho Agora,SAO PAULO,-46.604493,-23.589311,Comida Brasileira
35c6c3268e8b7cbe94ccb7ce6ff0b9a197a4d73863ec8d7d878c342affac7b85,Espaço Don Café,SAO PAULO,-46.565213,-23.546448,Comida Contemporânea
9d29d9674e7e2e49507b6e0dd8143d656d209eb69b58504f76371e4dc83ea044,Pizza Prime - Vila Mariana,SAO PAULO,-46.630713,-23.597108,Pizza
38d9c6ea8e14f96dd7f941fea579f906eb99c452a3ec422df63c6685ee5eabda,Nhô Brasil,SAO PAULO,-46.727878,-23.488422,Comida Brasileira
6bc481f3e3bdcf1328b813c8d5b8412027c53d57e2133e746b6174cf7e8066c7,Pastel Da Elza,SAO PAULO,-46.606528,-23.626474,Comida Chinesa
c859482976ff5006c53eb9cf92c728918622169f06a22ba08f87710327b4e50e,Subway - Sarandi,PORTO ALEGRE,-51.137338,-30.004791,Lanches
4803f6eb4ec3d63ef92fe1b2194935dfd6bf77e10d5e64bd001220e83d80cfd7,Vivenda Do Camarão - Vila Prudente,SAO PAULO,-46.580723,-23.598019,Frutos Do Mar
34780fd3dee6ad98ab634c2306782d2f464dae964fe3b6df8e6f012d2f97c684,Spremuto Villa Lobos,SAO PAULO,-46.73122,-23.541031,Comida Saudável
037e018d7184e63f4b4f65f886b363fefca8d4b5716f64844b9be84837bff6f9,Almanini Restaurante Arabe Tradicional,SAO PAULO,-46.674519,-23.584543,Comida Árabe
205e0971457c1de292742d912c2b6de1afabbe1568fbe1785bd0ad6ce8cbf90e,Diva's,SAO PAULO,-46.622633,-23.572058,Comida Brasileira
53eea906d00244227a63e748bac48962682a327c74568ed695d75a3aa93a0f3c,Nutri4health Alimentos,SAO PAULO,-46.690534,-23.582873,Comida Saudável
6b597b2688b875d77585bfadb20409b1a852a2e2ad219e48ab4c68a8c2b5da7d,C-burguer,SAO PAULO,-46.745669,-23.673483,Lanches
0c29377576a2d912d881ceb6de489aa8e90093eb88337e70121efbd807ce6906,Bella Paulista Restaurante,SAO PAULO,-46.660293,-23.556752,Comida Variada
cf62e77e345633fc7f3ca8873df2ef698d0355a7560289a7f5e12719423040d6,Acrópole Pizzaria E Esfiharia Delivery,SAO PAULO,-46.474166,-23.534051,Pizza
d564d2434f83fdd9097384c972dbb1f04cc42ac21f60af1333f61a5a55bc0a73,Pizzaria Borges,SAO PAULO,-46.667211,-23.667914,Pizza
2929e65f3036e77997fe2aded505761e36d7d490d97446ba417c862f92b7422c,China In Brazil Culinária Chinesa,SAO PAULO,-46.552738,-23.554375,Comida Chinesa
f68cab765efaf3938ecc5122a608468483d4af7babb3ecaf0caaa1cdea8bca65,Churrascaria Pajuçara,RECIFE,-34.901229,-8.117919,Comida Brasileira
d1d5d3e77c40b5aa3a903f8e33f3d2ab48f2caa406a78741f3295e8bb946f0b1,Daisuki Sushi,PORTO ALEGRE,-51.201179,-30.010782,Comida Japonesa
d82f349b2314d320f3e3d9c21f374dacd78cb6aadb088a0adc30e2bc61a07b3e,Fast Burguer,SAO PAULO,-46.596308,-23.567978,Lanches
6c44f44cab48d468d0e2de6ea75dc162d401df47f222c7c7ff9f28acbe37b7ea,Açaí Beach Bar,SAO PAULO,-46.657098,-23.555138,Comida Variada
ea17da301cbc594a0e8b8531b8ec90824047e3cab90737f2a617ff415000fdb8,Stue,SAO PAULO,-46.688864,-23.555888,Comida Contemporânea
01affe548543a45e674b52b3edbb13415548d0c5675f4698fdcef8516cd357e0,Magia De Minas 2,SAO PAULO,-46.637284,-23.616063,Comida Brasileira
31fec9c627b6410b1132f2db65eab595b2c4d42eb8ca22b8fd2b151e03efb122,Empório Do Espeto,SAO PAULO,-46.699906,-23.754456,Comida Brasileira
db230da2d7cc7883660f0273c33c2ad43740c868de0554cbd37b3d9f81f829c7,Confeitaria Maomé,PORTO ALEGRE,-51.210527,-30.036548,Doces & Bolos
139d22f4fb3ce011a8023ed0806e5a10661794bece51bdfda43983a5de7b237b,Pastelaria Da Galera,SAO PAULO,-46.743105,-23.577205,Salgados
33869a6d548854f2bab00bf03c938ddbb8977adef009fd62f319fdc94d060206,Gaia Natural Gourmet,SAO PAULO,-46.733578,-23.525485,Comida Saudável
1c6eaf03ae02095e0fb209773eab6d12f91470b3a59f6396829e6c403c4da765,Fabbrique Pastificio,RECIFE,-34.920094,-8.036463,Comida Italiana
c8dcd6a7d5830a32cc10fb098e47a2bbc87c9a858060eed9d8b44b1abc85f1aa,Kibe Kibe,SAO PAULO,-46.677604,-23.617418,Comida Árabe
94635bc87fd013d2d2c9ed4549c7d91317aa4137fc24bcd3ff7e82b73549654f,Real Temakeria,RECIFE,-34.908556,-8.05216,Comida Japonesa
6f34a7d73d713af36d5a95c721e2708c12bcc73bd45e7ed405cbe41152ab19a9,Salgadics,SAO PAULO,-46.397793,-23.535284,Comida Brasileira
5a18b8b77054901e9fc5d1f478af3d4ed67a7add5baf3b1f816ac1b45f50a680,Petit Doces,PORTO ALEGRE,-51.223005,-30.09176,Doces & Bolos
882c8da9aaff3f2a96d9fc18ced8c1d723041c7f952958e150ae461ec1f6ce23,Pizza Nostra,SAO PAULO,-46.709479,-23.688434,Pizza
ea513f8b23b65a27944fe8e2deecdf2bfb3c45a8a48176b4fd032d77615d9c64,Xangai,RECIFE,-34.890144,-8.108427,Comida Chinesa
13d0188b970e513bf06f8a974e6ae5038412b94d506814e41d666d8c611ec461,Uai Burguer,SAO PAULO,-46.646783,-23.554283,Lanches
6a1ff35801ee6c5f4295e8e271f08c18dbff37dfe56966acf7a28b898917d647,Ozu Sushi,SAO PAULO,-46.678264,-23.55761,Comida Japonesa
deae7f9746646abb7bf5a369333914551c3e695c32547178f2320f6571aca411,Margille Pizzas,PORTO ALEGRE,-51.230032,-30.036739,Pizza
5534fd621e3c2b0251bde7fbba48b5a82ddcbb714b0ab4b85c7ec6176b7bd2f5,Inazuma Sushi - Itaim,SAO PAULO,-46.679706,-23.585493,Comida Japonesa
e317356658b569099f7e81b4462416d0aec8c6fefee3c42374fce56a16379880,Habib's - Pirituba,SAO PAULO,-46.722567,-23.483139,Lanches
af1c197f5724a9bdec5b3cbc8e8ab2deff7a5b936dc2ddb52f128e3b226034c8,Valle Verde,PORTO ALEGRE,-51.142053,-30.040641,Comida Variada
013e1f5e9cb4224221cbf05a63c8bfd43ca0a79bcfc41d570d8e6e9216fffd76,Restaurante E Pizzaria Ligeirinho,SAO PAULO,-46.432214,-23.548774,Comida Brasileira
bbf5b2569f15c37157449d9b64aecf0412ff1a2848a1edf04fb09e400f039dd0,Parmeggio Interlagos,SAO PAULO,-46.679599,-23.676449,Comida Brasileira
255f56fa2a7dbf2dde9ad68b9e26c77b3a993fb27a14c679014e09736d33d04f,Lanches Da Naty,SAO PAULO,-46.448882,-23.552569,Lanches
f7b84ce3121f8bc0ff2e0b78f39f2f85d78e130e92f78eef578247d9eb018a57,Zé Do Hamburger,SAO PAULO,-46.68231,-23.540457,Lanches
4b5c44d47888328e49bfc8f50f6b68371eb90451622c9c42fadf55f7c62029fe,Pizzaria Delivery Da Mãma,SAO PAULO,-46.400182,-23.580229,Comida Brasileira
b745a732bba21164f5ca8e8a160945094b66d846889ad490c7c0de4b1a77fc4c,Town Sandwich Co,SAO PAULO,-46.670692,-23.561175,Lanches
5f7ddff3079cebbc19640fd5e0216076eac0188ac577cf70374a74a385549b72,Makis Place - Jardim Europa,SAO PAULO,-46.691343,-23.583709,Comida Japonesa
6c7df0c8fabdb644af68ac709819d0a0711ebfd1ebf52da63516e0e30990f56b,Doca Do Xis Zona Sul,PORTO ALEGRE,-51.250585,-30.108718,Lanches
3906f168a1aa7336d5a80729060753fce17c3a6af62a0dc4135bbae49f05e0ce,Jin Jin- Mooca Plaza Shopping,SAO PAULO,-46.593978,-23.581559,Comida Asiática
4c7e61a496e13c325731698e4ebe67eafc8781e6bb950b7e5bc3d123f6eb57f3,Lanches Kobayashi,SAO PAULO,-46.481822,-23.519666,Lanches
fec8d4f710e2e61435939a775265827c509020a9b476cc6b38ae896131eb6ec5,Fritos E Grelhados,SAO PAULO,-46.779385,-23.678778,Comida Brasileira
980167d96b923627aa7b6a34f1e937a651d496110107bbea57e3b76a3167abc4,Dom Carlos,SAO PAULO,-46.615202,-23.584728,Comida Brasileira
ba29766741227b9374d7afd3c53c71acb46d39354aa15d80213e7f70bde26c73,Burguer E Açai Oh Gloria !,SAO PAULO,-46.729464,-23.617316,Lanches
16e80580f051f39714cf3fdd540978507be9dc576b7803b1fd59d79c9238a656,Brasileirinho Delivery - Tatuapé,SAO PAULO,-46.565263,-23.548638,Comida Brasileira
c12fe5460a81544534e2a1aae2b5a65b82e9ec821be5e3658a179c772dcacebf,La Paella,SAO PAULO,-46.747138,-23.617126,Comida Brasileira
0a59b8cbe4a76d26288246d60b2388f9cd6f2dbe88bab8e3721a72d712d4c00e,Parm,SAO PAULO,-46.674294,-23.617318,Comida Italiana
460d5b15ac0fbcbaa8e7472f76b85d1e0c03b7e285963849fb05582599bed2e4,Pizzaria Do Dudu - Água Fria,SAO PAULO,-46.621898,-23.482623,Pizza
7b18a0df499a842f5567fb9811cb9174f01de09710bef652cd812a9edf180d22,Bar E Restaurante Estrelas De Minas,SAO PAULO,-46.687864,-23.608608,Comida Brasileira
a7cff045471836f962f8a3441ff3d6265da60d87a9b5ee90455e1318d51e6ced,La Dorata Pastel & Pizza,SAO PAULO,-46.583673,-23.589784,Pizza
17b3fa934fa0a6a006f8c428373c1a57253b31ec0be53b8b0215c403a29896b9,Casa Do Hambúrguer,PORTO ALEGRE,-51.180033,-30.076004,Lanches
3bfd98ff603e01a3a56bda22670381bc4b21d013a40f3e1967e4e67de15c61c4,Dnapolly Esfhiraria,SAO PAULO,-46.630053,-23.533928,Cozinha Rápida
6042ade27a18cba221f762153b6c97919de8380caf653d79c0a97b7a85f43902,Greenmix Mercado Saudável - Zona Norte,RECIFE,-34.902209,-8.044812,Comida Saudável
f0b70652bb5aebefea3804d22b9beea28b76a65430b3799001cb081306098dd4,Açai Delivery,SAO PAULO,-46.706888,-23.481245,Sorvetes
0f52d3c13a9bf5a51ee6948672416999a664ebd48083e1ecf8974c3608e3f86e,Temaki Express,SAO PAULO,-46.687993,-23.605668,Comida Japonesa
24ef579ebd0297adb041cb55759ab1aba419bd2a7e1753d59c7c607d69841b69,"Say, Xis",SAO PAULO,-46.699765,-23.570392,Lanches
54704ebbcee1082088c3c992e64586aa8187ecfbd61756a55bcbaa76838fce13,Frisabor - Brennand Plaza,RECIFE,-34.888356,-8.108291,Sorvetes
1ab2591da6a38db22c4070cd8ff3a34d79d1805437bd5e46c08ed2e8c493b93e,Lima Cocina Peruana,RECIFE,-34.885526,-8.055723,Comida Peruana
582f926b667ad994ae5844a07786f3af949b32726527731c2e0cbc0a4b98d166,Restaurante E Bar Puxinanã,RECIFE,-34.880317,-8.057738,Comida Brasileira
b62228983db16fa269f54c429230e0952014c1922804d99dd90e49d48b130230,Bem Mais Simples,SAO PAULO,-46.691476,-23.566475,Comida Brasileira
0754301b1f35c6717697b2be486d32e27062b4d5dcdfd3048e0ac459ee6c8dfa,Flôr Do Azeite,SAO PAULO,-46.732888,-23.653024,Comida Brasileira
bea5e065cf4c3c03cee26755c370f12f5a989d8cdc868023a7bfc9879ddc05b1,Pizzaria Da Nonna,RECIFE,-34.909176,-8.0478,Pizza
5566413b774977eb8c0c4cf845567346edf0459290747416fee830d9cb94f6fe,Sansa Saladeria Café,RECIFE,-34.872644,-8.063066,Comida Saudável
f54303aca8812536cf59f75864a887af90c5db232a537af3676261b7a6535ef8,A Esperança - Vl Mariana,SAO PAULO,-46.641933,-23.58514,Pizza
5184817c5d9da2510776bb78282b400f5e89c31f13959f650e41fdf9b39f3d0d,Salgados Da Vó,SAO PAULO,-46.710294,-23.729834,Comida Brasileira
35557ba326d42c054b8a932a6d20694c711ba54500bee71d6ec7a66fb390c56f,The Best Food,PORTO ALEGRE,-51.143078,-30.008686,Comida Variada
88be49d7fa0b007ec274a8ee5b747fb1d802c9b3fc9cf05d7a4bb20d73719d06,Big Dog Delivery,SAO PAULO,-46.721952,-23.612867,Lanches
8744f353a8293c0093166b6776f14ca7ce270a265868fd1ca8ae6a970c9ab0a8,Carenagem Burger,SAO PAULO,-46.679054,-23.583983,Comida Variada
cd374f640cc704448ed460b65fc93b510d06be105af51ea29d9d921011377395,Estaleiro Do Açaí E Hamburgueria,SAO PAULO,-46.665712,-23.529477,Cozinha Rápida
02cf9aa6af2bba73395632c170d6ccda3bccb9145773e60db1a708958fc37aa1,Pizzaria Margarita,SAO PAULO,-46.706244,-23.715959,Pizza
7d622eac0f026c10add6d4edff678055e585b175008512eb107ad7201db114d9,Pratico Food Delivery,RECIFE,-34.922519,-8.025963,Comida Brasileira
5eb601331bd7ccbfc4de3c338a413ce06773f21d371c8f5a36e0b3c47456e38f,Ferreiras Pizzaria E Comedoria,RECIFE,-34.909436,-8.142916,Pizza
405ccc7a3a1e383b5f4cd6e8e298e93c5fb9882fc26b9e44c14805629f8d5d50,Dj Burgers,SAO PAULO,-46.560804,-23.589532,Lanches
306d6d8453312134d47525433cf234eb220c29db2807080966497b5e54fab864,Deck Lounge Pizza Bar,SAO PAULO,-46.589548,-23.56695,Pizza
dc3a2f489a1292b4ef2ee8c29af013bbec915c856c39a3c2ae46d189cc09cc75,Veggie Raw Burger N Bar,SAO PAULO,-46.675807,-23.561114,Lanches
3f6853636f53c50a626928865807f8d389e762b509e47cc3b7a4bb2633ac7051,Tele Quentinha Alecrim,PORTO ALEGRE,-51.177606,-30.007753,Comida Brasileira
741dbbd64bdbeec65aaecee7bd3239da60419ef423c15d159260a574e09230f3,Rei Di Burguer Hamburgueria,SAO PAULO,-46.537753,-23.584904,Lanches
ae583228c1512b4a11b2477f6513a3c0bc42ff8e5a3a71177e8d3b9d70040dfe,Casa Branca Pizzaria,SAO PAULO,-46.611498,-23.453373,Pizza
7d7bbcb6b2ef5811eaec4e31aff99d63f22c3231fc13d741a0ad95e13e92b459,Eats Forneria 65,RECIFE,-34.902283,-8.051921,Pizza
ca95771a047e7ed13a989d3ef44ce90e5632576b5775a003b57669380730d22e,Carcamano,SAO PAULO,-46.681267,-23.582585,Pizza
5e28cdec6590bcc3c856ddf1eb5f3477a170b4ba2024f7d91d6394f6ba418752,Tutti Pizza - Lapa,SAO PAULO,-46.704429,-23.527898,Pizza
708677423b665752403ab199ef9838d7dfcfe0fe32660d6990f35cd40193a60c,Bamboo Sushi,SAO PAULO,-46.648913,-23.554678,Comida Japonesa
b2c40411b9dcdf24c3c2687a39cafcd8f5abd71642e811480cb75674dd0ee4c4,Ten Maki - Arruda,RECIFE,-34.894591,-8.02605,Comida Japonesa
7d3501ad8eadadba1dbf22d0409d4285e8510ed49e7e42f8f07c51644ce88712,Fahir Esfiharia E Pizzaria,SAO PAULO,-46.612417,-23.499967,Pizza
e796ec33eb17ec524accfd9584ef81d3330a798c9b58acb17f5986052ec66fbf,Mun Sushi,SAO PAULO,-46.497139,-23.529509,Comida Japonesa
f956d3346b32aa967f6a2b1a22d459362ad97856b2832d71bedf4af17630b7c8,Vegetao,SAO PAULO,-46.641071,-23.595926,Vegetariana           
6f7000df0427f91e2b8fab6db37ba0b4353a15954320bc8ac015281305cf0740,Cais Restaurante,RECIFE,-34.895422,-8.066542,Comida Variada
41b07dd627be350c0f8c0e8a7165f276efe410937807c9cdf15b2bb130f0adf3,Vico - Gelato Artigianale,SAO PAULO,-46.660253,-23.550192,Sorvetes
74ae76a71002885460019f4db92f233f14ca6ca132f877c58a39d20b85efff79,El Cuervo,PORTO ALEGRE,-51.197457,-30.01921,Lanches
e32e80e1ab512c1604e0fd231af712c10d942c25cd538fa49081aa2540e92cb3,Lev Tudo,SAO PAULO,-46.695111,-23.621636,Comida Variada
1e9502d506e1e3d20d8d61a629c92083ae140799f44a2b54026c247422689e15,Pastel Com Borda - Cidade Baixa,PORTO ALEGRE,-51.222421,-30.037492,Lanches
e148fc186df7099ea9e3db1e49d8da19dd1c0aa545b791b2f00deb959ca266fc,Ta'aki Yakissoba Delivery,SAO PAULO,-46.466772,-23.529034,Comida Japonesa
ff60d0cdf8a2d5d6b29511d81426739f826afc5beae5ee8289ecbd6b745f7498,Tapera Sanduíches Artesanais,SAO PAULO,-46.742044,-23.579549,Comida Brasileira
745ae987a4283cd9c624d2fc424650ab003dc336416fe59154c5419e34f55c1e,Estação Anástacio Pizzaria,SAO PAULO,-46.720171,-23.514785,Pizza
f392b0f74bd765d7ff681a2a00711f3b9ab0da43b7df8a614d25419fef4584a8,Snack House,SAO PAULO,-46.540022,-23.522233,Lanches
da29abf8a3dbdb8f9e4feb9b473f1755dab5454a3564ce8c660c1b23d826021c,Hamburgueria Siri Cascudo,SAO PAULO,-46.67474,-23.486358,Lanches
87dffa5fe39ec910884f68556e72dedf26a01040242ca9f02c9dfb204c99e1f9,Restaurante La Mexicana,SAO PAULO,-46.682159,-23.592718,Comida Mexicana
b4fa4c14e216452e3f9ef0a965564a1181b5c4f0e05b3bc3500b1fdc6ff7724c,Alice - Gastronomia Brasileira,SAO PAULO,-46.619833,-23.497413,Comida Brasileira
2d49bea488d3d8d4d1d5d7a39e0762bc38b2e3e97f24191a1d6a9c5c1a16d691,La Chiviteria,PORTO ALEGRE,-51.151858,-30.020423,Carnes
7182da6c47e059d33c41e66c160967815d8f477921b1d0bd0d1c4111de09ec0c,Pizzaria E Restaurante Da Vila 3,SAO PAULO,-46.613761,-23.449677,Pizza
999ab9010bf665b7f8f3ec3923c6055d0edc7f988766e095312f24cf66dd7027,Sí Señor - Moema,SAO PAULO,-46.665139,-23.602738,Comida Mexicana
b90f684fc31a0c5a1ad4f1b2a96ce151ec6cc95de0494bf4887ec49f343f6c37,Colonial Churrascaria E Pizzaria I,SAO PAULO,-46.438494,-23.535389,Pizza
af1b8433d5ace0497bc1a78e7383ff0ad01733bd0badf46a8743b47de11a969b,Fitioca - Comida Saudável,SAO PAULO,-46.654648,-23.554858,Comida Saudável
b96894b0265a4427c7b5d59d04bb4cac10ebff654a20a2725e8a50abcf92389c,Amor Aos Pedaços - Eldorado,SAO PAULO,-46.695918,-23.573732,Doces & Bolos
21f19f91c8a1ef8af69fb3dc523e362bea57589e4a394039053a50950f060860,The Pig,RECIFE,-34.908034,-8.143038,Comida Variada
858c91b2850b6d3c3cf0866cb55c5eb155e7dbdb70f059ab9569a0a9996d9814,Mr Knich & Cia,SAO PAULO,-46.638391,-23.599142,Comida Variada
106c4e1c22872f68fce0e237151438cc9be9c77987e1a7d68b6fe70a61028fea,Bella Casa 2 Restaurante & Pizzaria,SAO PAULO,-46.624958,-23.490493,Pizza
42a0664995661dcdd306184bc9288f08421b6ce8983b8c20bc90ed190634d600,Pizzaria La Danezza,SAO PAULO,-46.521692,-23.53306,Pizza
705fae0093bf8ec0ce05d65f9ae6ee6f1f507d93f7ed9f1652288f22735f510c,Italianinho,SAO PAULO,-46.527217,-23.520128,Comida Italiana
f509e4af4f1a0345ec46d8e203b8d8969bc44bacd6553b56ae4307b1f7dbf1c8,Muuburger,SAO PAULO,-46.680899,-23.586213,Lanches
875cb426de73ab47973f567d1f454072d9c8e59c523fb1822ba3fbe9572d64bc,Magic Chicken Moema,SAO PAULO,-46.661719,-23.610313,Comida Variada
8e120dc21b2cdfdcd14f04737f2d3d2edaded9d5083f810662fd6ea5621da4a6,Vidotto's - Restaurante E Esfiharia,SAO PAULO,-46.659683,-23.512965,Pizza
0aef551dc4e38e3fc9228b0a64123141db7a4f3ef724e886d03217ed958698f5,Restaurante Plenitude,SAO PAULO,-46.747604,-23.648803,Comida Brasileira
1e05d5940c9e312459f6da2309f7e19289a31e1b5605909a4d15e396884bb5d4,Aka Momiji - Santana,SAO PAULO,-46.632458,-23.49092,Comida Japonesa
eff49e08bec643e7c5f6b0274cf7be290826da8e6690d11455dc2cbe2f209bb0,Esfiharia E Pizzaria Bonfiglioli,SAO PAULO,-46.745118,-23.578542,Pizza
1832eba45e59f182559245c74665f7e701275dba0a208d51626b38659519d819,Piadina Romagnola - Vila Olímpia,SAO PAULO,-46.68932,-23.596034,Comida Italiana
208a8d62df1ffb5c9fdd751a5ef6c9c0d60e4e9f80746aa6b535e1a6f8b4a823,Puro Alimentos,SAO PAULO,-46.739295,-23.497799,Comida Brasileira
d07024d8479c5433fe55e4131d68bad6de0c365515a5bc33ba126894d89efb22,My Burger,RECIFE,-34.919748,-8.038871,Lanches
2d4761061c799551c1854fd19356a9edfe55f49cda34dd805ff8dc46027e7cde,Adeo Cuisine,SAO PAULO,-46.659338,-23.562188,Comida Contemporânea
974ef57bcb11d818c08f43a72e57947c6e43b9cac7d5eab8cf73400909834269,Meireles Pizzaria E Lanche,SAO PAULO,-46.497507,-23.499679,Pizza
2b6613e98b1a88bf35868e68090d96a4f1c3874412822596e522e6bbfce2afb7,Sushizinho Express Delivery,PORTO ALEGRE,-51.152442,-30.020849,Comida Japonesa
4618777c23857e96bbc82042eee984d270c507d395b0121687aa476250f5c839,Bolados Sucos,SAO PAULO,-46.66017,-23.570396,Lanches
b3cf33adf72cfb301111f61e4d3bc787e7ac32ae974c96ba844a5c69db86fa62,Fabrica Da Esfiha,SAO PAULO,-46.68932,-23.608417,Comida Árabe
5cbf16abb77ba27823c13c60dbe64440d95b52742abe08381b30b18517ff8e8c,Vinos Express,SAO PAULO,-46.689284,-23.560968,Bebidas
5cc969e5ab2e00909afc448b6ed407fad6f5d1ad1ff953376499ae534cd4cede,Kynjo Sushi Delivery,SAO PAULO,-46.74249,-23.613731,Comida Japonesa
398c54da9c8c560086e7a128473384020a2a71b6dd631c5e2468171c55f77e83,Pizzaria Família Gusmão,SAO PAULO,-46.615465,-23.609603,Pizza
00f7001faf024ae491f51cd57908e5217cf160cf42a8569ca3114363024ada49,Della Veritta Pizzaria,SAO PAULO,-46.515552,-23.570854,Pizza
68fb22788733868aea9166ed628621a59caff4c07d2d29adba0a975e99dd325d,Big Lanches Delivery,RECIFE,-34.952224,-8.084634,Lanches
e59d39e0afde162efcbb46f669b634d20b2ca853d5a0350420fb52af68b7d04b,Obentomania Congonhas,SAO PAULO,-46.663104,-23.618423,Comida Japonesa
05a449da15761b5c39dd857564c658f9e3cafb9e12e876d5d9681696e2c086b8,Nozomi Sushi,SAO PAULO,-46.557588,-23.558774,Comida Japonesa
97d26fdb8f060faf24132819b8e0a3cb2741a535e2a5d80fb79e293b6ea0898a,Piu Bella - Vila Clementino,SAO PAULO,-46.640343,-23.601468,Comida Brasileira
fe8b10b5994f9728a20f8385e37b4a559cbf825aef9441ec3ecc1d197c39541b,Seu Sushi,RECIFE,-34.901724,-8.122261,Comida Japonesa
b191aa6fad99661f7d384e05696a4142debe58080ae70e2e6024503d9fa0b8e3,Estaçãokebab,RECIFE,-34.908915,-8.035291,Comida Árabe
fc28c748b9926f4cf6c0f869887943e0f1d9ecc513ed5ec0066fa0192c4517ae,Pizzaria Notorium,SAO PAULO,-46.616338,-23.571538,Pizza
f363bed5328e21e0792a8ed95f922765e0ff3598dd7f5ba697b4c9182efb9a70,Burgueria Solar,RECIFE,-34.927409,-8.019568,Lanches
18be81513ac373291070d603585ae9b2fc0589bd6d8c5337053975704a6f1626,Feijao De Corda Restaurante E Pizzaria,SAO PAULO,-46.682269,-23.750384,Comida Variada
03aa44cbfca3eb65e99a933f751635ce6d4a3f59cead41ec98282c3aa21e76ea,Ragazzo - Radial,SAO PAULO,-46.576658,-23.541937,Lanches
63642d00a21c494688e17b3ef2ccfa7296dce736351f4e0d3da225a343cd4917,Sauds,SAO PAULO,-46.543193,-23.545703,Lanches
99384e9f81356aac30d5f14d0bc1936e07b28e8983b497d0233586db526293dd,Fya Burguer,SAO PAULO,-46.749178,-23.570462,Lanches
ef7d7d2ee2a21100e237bb477104fb754cab427df46e4797e151c6bdc68810a5,Farinata Pizzaria,SAO PAULO,-46.647228,-23.553758,Pizza
e0d0668b4f08a9bf1deb6794ad4a3845dd1497f0726d823788311ca0688dc6fe,Pizzaria Toca Do Onça,SAO PAULO,-46.599082,-23.476898,Pizza
57beb8b1b8ad6fb7a80a6274913bf4c32e7f9d7a59ee0fdcb2247f9f6e40f12d,Capadócia Norte,SAO PAULO,-46.629828,-23.492653,Pizza
b1cdf141d4c786b3fbdee1e0d022f077da4f9d58ac922ebc5a9e6ac848d4f554,Takone Sushi,PORTO ALEGRE,-51.143042,-30.011079,Comida Japonesa
10cf791d2a72edef07b83aab27bda24a6e3f66e358e35ff41f3b1d47cde82a61,Cantina Do Marinheiro,SAO PAULO,-46.672769,-23.604113,Frutos Do Mar
5edcf8f9782f7c06cc19587a8d7d9b3e168404d2033882523f00e22ca8267d2b,Pizzaria Mikas Prime,SAO PAULO,-46.650908,-23.559863,Pizza
e185e1daf50cd45d644e61bd771d61e9885a560712f925d90492c85bc9a1afe7,Point Dos Amigos,SAO PAULO,-46.741279,-23.659073,Comida Variada
5201a55090f919678d5cb25557eba4615765f1b10db5a9d3c2e53bf7b6b4d73d,Divino Chopp,SAO PAULO,-46.544003,-23.552056,Comida Variada
711a788acf7799a9c828d199e440a418fc238506c4949ba314eb97629713aac2,Raw - Sushi E Poke,SAO PAULO,-46.705791,-23.629189,Comida Japonesa
33026d5fe590712ba70cb73c9b31171c666736c1990d19cf42906b594f367547,Malasana Lanches & Esfihas,SAO PAULO,-46.521896,-23.499234,Lanches
79e7c5469e6cda51597968e339d1ced5bcc819f1ec20c89e88d84670afb681e5,Pizza Hut - Lindóia,PORTO ALEGRE,-51.151814,-30.005275,Pizza
20dc344cc3e34de13bb97e83fbbb3d7b2d3754e14727a799178a9fc1f5fe0162,Japa In Kaza,SAO PAULO,-46.572255,-23.55379,Comida Japonesa
391fbfd7193bd0e2ad87bee486f0a415236c620d32f64d677a2a0df1ec9c90d3,Quentinha Da Ana,SAO PAULO,-46.700324,-23.744914,Comida Brasileira
af36d6ee1f9ad4484ee6add6be15d947e675ae844e53e2619bc6b745370c2fdf,Love Japan,RECIFE,-34.869599,-8.054975,Comida Japonesa
6a869409b80726bee5e89491cb5fe1ac5c683a6bd23400a18ca1cb7b90358e4a,Pizza Makers,SAO PAULO,-46.736798,-23.631755,Pizza
7078d045814bb0798e94b39d4228ecb7cab61bd034a0128caa4b71286a65e442,Pizzeria Cézanne - Sumarezinho,SAO PAULO,-46.681349,-23.549663,Pizza
4dda59e408d21807be7f8c975ae296e0d7acb418868b6da7d5a99314a311bc5e,Hora Certa Marmitex,SAO PAULO,-46.600598,-23.609969,Comida Brasileira
04d7a394a4df27a3be8d53085b7c914c55b4f78a5dfaaef627c5ba3b92d730ae,Makis Place - Lapa,SAO PAULO,-46.702119,-23.528273,Comida Japonesa
dbf60212a2ad7336f930dd42cfc91af86935610e76d311757d7c2cc5b630c3a1,Domino's Pizza - Barra Funda,SAO PAULO,-46.672423,-23.519978,Pizza
9a027b584ab4c9362ea7eca613bc7a36efd1d871f1a6d0ba20642c41eefaffd1,Point Do Marmitex,SAO PAULO,-46.732096,-23.666158,Comida Variada
c8aa90e9af33d15fa76034f6e6e94e8e697d471ba0c4cfdcf00d6bcede6f9f26,Pizzaria Fornão De Ouro,SAO PAULO,-46.647259,-23.674804,Pizza
e2172adbd1d90df2d80673d266fab738937da99aee29583cbc5529f06e43d708,Bráz Pizzaria - Higienópolis,SAO PAULO,-46.658476,-23.547576,Pizza
601b92053cc6aeb08eeb5261a40722d64b2ea97b86aef6a5c2f630bf13b543e5,Burgomestre,RECIFE,-34.900332,-8.052532,Lanches
15c12ea1538585e340ab10c8248fe7c1224e58634a9569981f9f0d2358b1ee38,Prima Deli,RECIFE,-34.891482,-8.110994,Comida Italiana
819f3d26a71aa2512f30d6411054ebde075d3aaf7e74e8785b090f7909f66a0c,Tempero De Familia,SAO PAULO,-46.692987,-23.632751,Comida Brasileira
c58e363898d6e3e0ca03588560d5f766c46f9ad48f745e14406b1cf55bea2e3f,Massas E Doces Vilinha,SAO PAULO,-46.699349,-23.527559,Bebidas
2f9eaceba6a455c5604bcc8ce6957a2645ac7a44e6c06f4122405f43492f338c,Fraternidade Lanches,SAO PAULO,-46.77264,-23.681318,Lanches
27ca65160f15445c2c929ee9a14cfe793855fb51ddb6c2b28bbda9b6f799c9df,Try Food,PORTO ALEGRE,-51.112432,-30.105265,Lanches
3dfc7df8073942c0c8fbb388642186a761d4a37e7f28227f3b7baa434db08e79,Pankecas Da Vovó,PORTO ALEGRE,-51.203473,-30.038144,Lanches
c65458239b24cbdd4eadd06bbacd92434949ee57b6f1f54c72f8bb40fd843027,China In Mix,SAO PAULO,-46.749884,-23.659903,Comida Chinesa
84cf9234b88c9679b256b30e804a2c8503c51202aa57456513b6115992112bb8,Padaria Ribeirao Claro,SAO PAULO,-46.679956,-23.602256,Comida Variada
c4cd844caebbd3c11f14623ca3154da01fa6782c291ea8575a6d56412ace2fef,Pomelo Gastronomia,SAO PAULO,-46.706101,-23.630496,Comida Brasileira
4afd52a863e76027f454297f49824bc51ba0e0ab4265b3ef2a8cdcf997082aa3,Bar Rancho Nordestino,SAO PAULO,-46.647688,-23.555563,Comida Brasileira
d8e16d616aa205ce6f88c6e0fa93fe9dcdb96ee1f8f96253f80697aa3669e21f,Império Árabe Fast-food,RECIFE,-34.917724,-8.109394,Comida Árabe
0c1d70393d0314b395ea4d28114c738aa986392c69037d9b16e30e99031d18be,Burger Do House,SAO PAULO,-46.622903,-23.493708,Lanches
109cfec886a5a73052c7491f07e41100c4f443d4b7d2d0621be86821bfd9df51,Prato Fino,SAO PAULO,-46.486666,-23.513629,Comida Brasileira
5c8274c7d65788f005bd54b52fb7a0b18728a40f4b8934cc77f641f99d6e7801,Açaí Mania,SAO PAULO,-46.677807,-23.755575,Comida Brasileira
f6e9b7aa46efcbee62e042f0dcac9ffa9e18d2880709a2d8d5b8588e3bf542bc,Mandesfiha,PORTO ALEGRE,-51.228542,-30.095231,Pizza
3643bee2d0c1f4f78a277f1d1ada1e743a040baffef3c2f04a4878a231d6e968,Ochappa Hamburgueria,SAO PAULO,-46.662814,-23.687229,Lanches
2e855cfae5aead4742da8f7d36771cdf4debb123d940a71ebc60fb0e3511c6c6,Panquecas Caseiras Dona Isabel,SAO PAULO,-46.74399,-23.572865,Comida Brasileira
5ffa935169b4ee4a04241de76174ba7befd82ddf6230eae1ed3f5350b8e9b877,Paella Especiarias E Restaurante,SAO PAULO,-46.720076,-23.619324,Frutos Do Mar
f1d8bae89042b4fd9aba04d2d4a54888752f4c1ba251d17e3f2fef16a7fd84ad,Greek Donner,PORTO ALEGRE,-51.163334,-30.024099,Comida Variada
a06a2146ba2335664a60c941a940d518b4e25444d1d37bbee99e7d69d96d220c,Mestre Cicero Pizzaria,SAO PAULO,-46.678191,-23.665242,Pizza
16a74c5d115f7f9617e10a94f9c271a788a8c3e67624abe4af7d521070e84c88,Espetinho Das Palmeiras,RECIFE,-34.923464,-8.109626,Carnes
7e6a918898cbe52ddb7dc59d7c1db8e0b7de90ec6c7ac5e3621ee944b787dbb9,Pizzaria Santa Ignorância,SAO PAULO,-46.623803,-23.582035,Pizza
1f38c5beb564b73c5adccafdc5211da649e33f3e2d7e7c9f66672cd08afc1097,Sushi Las Vegas,SAO PAULO,-46.752401,-23.577503,Comida Japonesa
dfb39593efa79cf62582c72bc8640172c5435bc633edbacd70e80fcc845ca755,Rosticceria A Casa,SAO PAULO,-46.61769,-23.457765,Comida Italiana
913cec1c537bd9addb8913865e990c74f4dcfb41fc52cdb5c7565932d90edbe6,Spoleto Shopping Downtown,SAO PAULO,-46.574777,-23.461428,Comida Italiana
91924614ba7a395494655bdab317a3b85ee22fee35b7082af5040f42eb0dc6a4,Bá Pizzas,PORTO ALEGRE,-51.24717,-30.107482,Pizza
117fb4acf7e73b2c56ddfce1875a9cc8ef03d07c391274083286590fe15834b9,Bacalhoada Caseira - Vila Mariana,SAO PAULO,-46.646843,-23.589213,Comida Portuguesa
fd70dc1d0da0638a16e06fd1f777a5d99a7e7e4a7656c7c3b951803d385a7d40,Mount Zion Vegan,SAO PAULO,-46.696094,-23.524928,Comida Saudável
8ab96575c35e39a746ae76229186e8caa817435e32f59c570c1f68c794c0feb4,Lig-lig - Morumbi,SAO PAULO,-46.715997,-23.589121,Comida Chinesa
73e36cc6ab09d5788e491c70a9c69a7759416fc93bdc1223456877d133d609eb,Mussa Esfiha Jardins,SAO PAULO,-46.659128,-23.5693,Comida Árabe
79ce6cfc9be81441c747ae7e8b30d7044d26c5a1deb9758b9bb494f42b461fab,Falafel House,SAO PAULO,-46.649662,-23.58281,Comida Árabe
873ec98b1872bc96845bc9392f6fc3e5a9d48aa1ec5202e4ed0ad168f6617cad,El Brit Hamburgueria,SAO PAULO,-46.428201,-23.477846,Lanches
db7a10bd9031c77f41db79fc763b2b8c7f5447d1b901f8c900b132e15a4aadc3,Naoki Sushi,SAO PAULO,-46.692366,-23.661519,Comida Japonesa
9b9581fb41fe0bf023f9728c401903ef738c16f66a0d00d5476907989c1100de,Bora Bora Pizza Bar - Pinheiros,SAO PAULO,-46.681989,-23.558403,Pizza
045ac93fa9e0c903cc7a6c1a343a80a1f10bc920c60fecd039052a82dbc1f7e9,Sabores Da Casa,SAO PAULO,-46.747439,-23.635373,Comida Brasileira
76d8e58a6fac744ce9a8b2dedbbb22feb7d516bf15d861e40553550fb2e3e2ac,Massa Fina Restaurante & Pizzaria,SAO PAULO,-46.711724,-23.637023,Comida Brasileira
c4e93f25288da0dffc7cbb02f25a6ae1bd2d1177abb6bae5b4ae4101d0aeade5,Ilha Camarões,RECIFE,-34.893556,-8.116784,Frutos Do Mar
2c845286496beac8db154b1ee63ac44b078152f9282cecfb07cf52cdaec3b716,Tipo Prime Burger &amp; Pizza,SAO PAULO,-46.706278,-23.629889,Pizza
f9738353e1aa492e7c1beeb01ff1d8d0cdced8b93e20dfe796522c1d1f3c7d82,Amélia's,SAO PAULO,-46.574263,-23.506498,Comida Brasileira
0e84cdcac3131983df4dd52fce362c37d92385bdce8a4edffe56aabe11d3f9ca,Vianessa Pizzaria E Esfiharia,SAO PAULO,-46.576673,-23.481433,Pizza
6151a6d9432ab741e821fe9ab2a291d9f4d1002525f32713db5d51591be345ef,Pizzaria Troppo Bello,SAO PAULO,-46.538804,-23.538219,Pizza
2092e411d7906eebcb91778a5bdf5f387b97d24e889a8c5a928a05a7cd53eeb9,Pizzaria E Restaurante Napolizza,SAO PAULO,-46.486059,-23.611141,Pizza
c4205c67a560619b157a6610b9f4720910de3b0bcfe2d0324b305bf05d432e5b,Kpop Chicken - Jardins,SAO PAULO,-46.664028,-23.565888,Comida Variada
188559d4f579a4ad3fb97f30a6756b344c8c58a25e98f303798a97590853bb69,Packfit Marmitas Saudáveis,PORTO ALEGRE,-51.184631,-30.07197,Comida Saudável
8af8c000475db4db26db2f1fdf22c4bfe1573acffa9cdfdd6b7f2ab0674494b0,Crucillo's Sushi Delivery,SAO PAULO,-46.720719,-23.486443,Comida Japonesa
e34f85e44e9d005ee7c3f4df73de51c58b372d5f0abc88560d562c17bedc301b,Chalé Pizza Bar,SAO PAULO,-46.589503,-23.578104,Pizza
31cf9ef68dcd55d9a3ec5deebddd2f277791ea2b8a480e76fe0688d8eb94549f,Oh! Pizza,SAO PAULO,-46.671731,-23.603043,Pizza
3a67acc941e33fcdcf97ab757d805be93a2a5d4c1013ac9bb3ac1d9fa9d4c210,Lá Rica Vicky Hamburgueria Peruana,SAO PAULO,-46.750639,-23.485979,Lanches
cb5342e11e95fd337f179eaf6d19b06d4f884725c27fd9a6354ab0e7d809d52e,Shopsoey,SAO PAULO,-46.624218,-23.495228,Comida Chinesa
d487ac9fc0310689685350bf040d8d12b2c3e7213a529755598451774193d0e0,Click Sushi,SAO PAULO,-46.728539,-23.606446,Comida Japonesa
c760d47f7c7853dc2e14ac5f0ebd7b3a16e2e6bbfec0447a6bc87d16064db5ed,Pizzaria Jlm Dados,SAO PAULO,-46.651923,-23.540888,Pizza
6a52ca896219056b9715c5f07e7a0fc230c4c44f160f06717b6839ca2ed3561d,Burguê,SAO PAULO,-46.731648,-23.633565,Lanches
15473975c842fc764bcecca7d5d7c5e17d7fc9692ac4c4b3e7c70678bb4f90b0,Pizza Hut - Ipanema,PORTO ALEGRE,-51.237137,-30.130826,Pizza
080ba12055aca1ac73ad3cb42609f8b16d43e9ae2e36fd208494d6a9a09789f4,Pizzaria Villaggio,SAO PAULO,-46.653151,-23.554773,Pizza
4c10de59347ecd631e150fff54cda673b1a571298ffb2370538a5b41e4d73655,Braugarten  - Berrini,SAO PAULO,-46.694061,-23.608772,Comida Alemã
93c0c164cd25965753c6cf347c5d59d899cd757fc8d5bba8d5269a9c0fa2e533,Garcias Pizzaria,PORTO ALEGRE,-51.227542,-30.04466,Pizza
1bb2d029541ed215193940642b506ecc080f4f9db98be758440e77c28def2fc8,1900 Pizzeria - Morumbi,SAO PAULO,-46.734614,-23.629348,Pizza
9d197debb6cd8de0c074ac7c50aee36e72cce0849c1a47de948186dc2dd73449,14 Bis Pizzaria Vila Americana,SAO PAULO,-46.444897,-23.499359,Pizza
d61fe7ddfb17a37871555671c36dfc2f1bf82d8573b4588b20d38bbede2b4650,Bar Restaurante  Regina,PORTO ALEGRE,-51.221394,-30.053319,Carnes
60065f952f980b941f499c909626f2ad61cc5f3f1c5c8511082ac187a1695187,Ofner - Perdizes,SAO PAULO,-46.671358,-23.540613,Comida Contemporânea
363b734f4996130a460b19a2942a949526248b15486828ada063ec945b94a70c,Mao Sut - Thailand Bar,PORTO ALEGRE,-51.208475,-30.030611,Comida Tailandesa
8a83697fdd8c0802973bab1796b38635d8946225676f46acc61ab8a5b25fa085,Pizza Em Pé,SAO PAULO,-46.552348,-23.526048,Pizza
0c14f124a88ffca2e5e0ba195964d992fe17febe4682c1e11d0fcc3f789249f2,Mr Texas Pizza Pan - Jardim São Paulo,SAO PAULO,-46.61311,-23.48739,Pizza
eee4e509379106a5ec3c407fb36c34b53ae329999775735105bac435fd30bf5d,Edu&anny Doces,SAO PAULO,-46.595683,-23.602664,Doces & Bolos
8e1eb8aaefe3ddb459354fcd4b24436baec8a2fc39f6710cbf59620476c65371,Al Barouk Lanches Árabes,SAO PAULO,-46.544458,-23.595739,Comida Árabe
78031c4b3630025b869a51b9e13cbbc1f84f5fdf9b7d23ed03d8cbed92d972ab,Panini Pizzas - Vila Buarque,SAO PAULO,-46.649723,-23.540813,Pizza
8c1b34812ef7cee9279f9e82a93e4b12c34ab6163f4a901ff575c327dc0165b1,Lone Burger,SAO PAULO,-46.473817,-23.505184,Lanches
59c508a3e8923920812f6ceb1b521bce2fe443b514c56ae068e2982c640c7641,Pizzaria Rainha Das Perdizes,SAO PAULO,-46.682523,-23.527798,Pizza
9509e9e3123bb4287e01cecaed9e7dcb91d632cd88a66499f0469f113502628d,Pizzaria Jova Express,SAO PAULO,-46.575822,-23.447853,Pizza
3cf8362d3e920bf8781ba2f1a14fb443ae1dd41db68d2f26a3814ff859c6f81f,Mar Haba Ii Shawarma Hamburguer Pastel,SAO PAULO,-46.665234,-23.624893,Comida Árabe
1972c57717601a8cfc71cea6c352116912683e075799a9362f1960c904d723e4,Makis Place - Vila Leopoldina,SAO PAULO,-46.733165,-23.524861,Comida Japonesa
121d75b6996023f0572fee4fe2258086aa2ab7f1bf74a612544da83b9cab3928,Vila Nova Constancia Pizzaria,SAO PAULO,-46.673146,-23.668099,Pizza
af8fc31ee91fd98167dc3bd6f7313936520368714da419c849cae263a487b547,Pizzaria Saborella,SAO PAULO,-46.728662,-23.610355,Pizza
98145be9947c36c0b5214494e3dc697bbe4347878cfcded26c5adc9094b81704,Capilé Pizza & Grill,RECIFE,-34.902178,-8.11753,Comida Brasileira
315538364d12e8ff46c9bda86ccdb53e21d6fee3c6c9c19a340ca57ed3bc9b13,La Casa De Pastel,RECIFE,-34.890636,-8.043085,Comida Variada
a4bb4d5883ba403451f7e66a9c9818326c4974a0079d6126955733461ddd9c59,La Pergoletta - Itaim Bibi,SAO PAULO,-46.674144,-23.582248,Comida Italiana
a41ae55be7afb62eee8b1e3b958740980a749b9e9f387a2795e9f7265a1fb9a9,Hooker Burger,SAO PAULO,-46.657363,-23.554248,Lanches
f71958d02efe625f9686e414a1ee94c24e68125dc8371d6fd5c3af9dff7dca13,Pedrini Assis Brasil,PORTO ALEGRE,-51.146839,-30.010516,Comida Brasileira
fd2b24ec02f18acf5839e1202a2705aa792437b09f3540c31730f7ae4cfbb3f8,Fitisseria Foods,SAO PAULO,-46.706604,-23.628702,Comida Saudável
e690e0072407aea829fff083efdb16e5d6071e7c5537214fd3f6ee517a7ff09d,Baked Potato - Eldorado,SAO PAULO,-46.674109,-23.561575,Cozinha Rápida
2fce2c09b41ebb3f665472c7949cff6d427f09f70a34c45da577fc52d47aaf9a,Pizzaria Favorita Do Popo,SAO PAULO,-46.439327,-23.543524,Pizza
af50f1198f209d783045950d2c3950830f26099383fa323e8ffcac2aa7ed8903,Churrascaria Nova Brasão,SAO PAULO,-46.713072,-23.665893,Comida Variada
ba6e0f67a25818c37a6b3a8ca3fec5ff2b9a580b85b8d54c612fac2d3e120d16,Pizzaria E Esfiharia Família,SAO PAULO,-46.382876,-23.481549,Pizza
45473eb2020c4235ef818fa68374ebe091faea9ceb2ccedf19eaa4961078ed96,Pizzaria Sousa,SAO PAULO,-46.645101,-23.554945,Pizza
160fe9d621ed269bc70e8458f1f706fe2759ed7fd8b4ab752022f486d11faba9,Pizzaria Fanzine,SAO PAULO,-46.652073,-23.555038,Pizza
07ccd4b2c32a3df756cb476131cbb34d032b5b93fdc951a8c21c40f3c8e0d6a8,Restaurante E Churrascaria Divina Carne,SAO PAULO,-46.435647,-23.503151,Comida Brasileira
878b4e31ae278094b953f83661094d8c52fc586a3ca8fdbf5e0e8c7082d11e0f,Cantinho Da Pizza,RECIFE,-34.906941,-8.053688,Pizza
52f5947c79daf2505e75c02512632ad470c2927074efccb5f6b96bfec0afe9e7,Emporio & Rotisseria Da Pri,SAO PAULO,-46.540398,-23.568694,Comida Brasileira
899f784c976040ce2d9bac10d2f2571f13a0e343d08917eb91cbe5698be338b8,Nioi,RECIFE,-34.885386,-8.087214,Comida Japonesa
bb3cd762e01c7ab916173f1ba15d703fce58f0a1be69bd719ca356e38216a602,Oui Saladas Vila Olimpia,SAO PAULO,-46.683998,-23.598763,Comida Saudável
6373be0cf3b557facc8d9c9883b72584dc3f963752c08cf98dc12a261eb1f457,Dhegusta Mais Sabores Brasileiro,SAO PAULO,-46.523877,-23.576146,Comida Brasileira
7580a57306f132831e3337f1166afbddf05b79010311836609a6138d87cb2f82,Pizza Da Hora,PORTO ALEGRE,-51.171023,-30.15954,Pizza
d1402af2fb2f32a4b4a55a84bd477bf5e389c2993032b876e5fd004a9087cbdd,Alices Bar E Restaurante,PORTO ALEGRE,-51.211957,-30.063028,Lanches
13ecb275f38ea4c13312ae4e143d30a85cf2b6a8b9ae23311f0d6f84c5ff1e0d,Açaí Beat - Água Branca,SAO PAULO,-46.674093,-23.527408,Comida Saudável
18176140364f66a56d4b4b11c386f6b207732aa71b354645b05ef3057f8ca3f5,Favoretto Rotisserie,SAO PAULO,-46.728984,-23.529318,Comida Italiana
f0b75729a58280819572085c10632cbd0f654ab8482095cae5177ba6c4cb6ae7,Leve Bistrô,PORTO ALEGRE,-51.155466,-30.020376,Comida Saudável
6013b54b12f568c1c117456e531b7ac1eb226baa0aaa307ba9ebb3de19dd48ae,Coqueiro Viii,SAO PAULO,-46.687768,-23.535383,Comida Brasileira
9095ab09d2f13aa981d0adac5f8b71117642004cd83ddddcb6c1c886bffc8d84,Baronesa Pizzaria E Churrascaria,SAO PAULO,-46.655507,-23.539747,Pizza
5b6b2b0e7fb124ff4fc7975b2938448421578a0196f2083a634771eda03c68b3,Pasta Lavetti Alto De Pinheiros,SAO PAULO,-46.717779,-23.540598,Comida Italiana
fa3e5ce24b429ce7a2cf60d8552b29cccbda24c353173578b03df84088c72007,Marmitaria Parada Obrigatória,SAO PAULO,-46.653343,-23.462302,Comida Brasileira
a879e8d84184d424e8b4a3e14707117b2026a0f8db27080f7a649f7a42777d31,Mr. Cheesecake,SAO PAULO,-46.646873,-23.582543,Doces & Bolos
c7e04f507b525fd53af166fef320a64dcec68d2fb118bf4198b86c8e8f155318,Gendai - São Domingos,SAO PAULO,-46.734712,-23.499317,Comida Japonesa
f4f8763b2c59571a2bb80d7fb170acb0d69afdd083ee2e673336052498058903,Motokitchen,SAO PAULO,-46.773764,-23.638793,Comida Brasileira
6aff2bced041d4a32a722a38faad0df86d4a0a747ccfbf326aa4c4dbaa7bac6c,Gendai - Ibirapuera,SAO PAULO,-46.657577,-23.543126,Comida Japonesa
6fca3a921c12001348d109334bc77cab974ba88bf915d96a6c9531abc4d9f338,Sushibam,RECIFE,-34.941907,-8.111101,Comida Japonesa
4289c90e7db8057a94c22915b051bc010e5e1b0fda5b5931ac83e9859be4f361,Cachorro Do Rosário - By Deliverycenter,PORTO ALEGRE,-51.203473,-30.038144,Lanches
526c1ee3c320d97e29b6c75ad9ba01b5b47caacf8a7e6ba56db7441a9e0c2435,Pirajá - Paulista,SAO PAULO,-46.658412,-23.562171,Comida Brasileira
c90392cd4f2d381ea0c68b9ae2ad64a22d42b83c554a5ccf94bbec36ab9a4649,Seo Belleza,SAO PAULO,-46.66985,-23.502708,Comida Brasileira
3394c5bc5672648627ae4d67af10aef5870c5d70b08c50f7aeca7ceb0dced8e8,Pizzaria Do Cição,SAO PAULO,-46.655466,-23.747814,Pizza
ac5497d5525febe395eb26304cef8c4e165e798f5066772fda54809d1d45a03a,Xis Julio Paris,PORTO ALEGRE,-51.199332,-30.005248,Lanches
b0834f37be1e0eb855fea523da8dd0ea2867c8956a0cb9dbcf12d857a28184e9,Prediletto,SAO PAULO,-46.715714,-23.656013,Comida Variada
dfead99943aeee22f7eec18276e3249f1fab6c098e1024dcce21d211bf082e6e,Açai Omega,SAO PAULO,-46.473259,-23.531491,Comida Variada
85a59985ee33f26f635880e39d8b084286e59d4b858b3c09dbff0a9cdc256f08,New Pizza,SAO PAULO,-46.423401,-23.519006,Pizza
cb61b7f1228201ca1811d966ddcdd784d6f9ffa43d311fd7b057958222332e24,Duetto Itália,SAO PAULO,-46.683273,-23.532743,Sorvetes
e7af1bcddba91899720cea7eb835afa203566ac7ee4a3e97028715657d997be6,Café Quintal,SAO PAULO,-46.660459,-23.605823,Comida Saudável
34b7f8f177723d2910d8ea8006b2381e06f9c25da0774bacc376eea9cef34e6f,Crifis Gourmet,SAO PAULO,-46.547194,-23.514863,Comida Brasileira
90ad9190c36dca484661ae51610b4e9bfd08af1b1461a9923556d49e5a2a3c9a,Maximus Coxinhas Salgados E Açaí,SAO PAULO,-46.625014,-23.61361,Lanches
be94fee6066eac467133df28507ea0fb36ea716af9147dd52ee4df8df99309eb,Pizzas E Esfihas Big Brothers Ii,SAO PAULO,-46.500967,-23.596691,Pizza
0d18d34d55a90bf656aca81512e0fa3fe0442634086295e5b22dc426ec0dca24,Companhia Do Temaki Shop Total,PORTO ALEGRE,-51.212922,-30.025742,Comida Japonesa
056828a127f082e998d58d7d170db5427c3b47af8a8cbcde489be7d3febef26d,Estação Lorena Delivery,SAO PAULO,-46.659198,-23.570075,Cozinha Rápida
5bc340feec2a577e7a9543166d2929915642009fefa631f2129aa4903aa34761,Burger King,SAO PAULO,-46.674073,-23.598473,Lanches
14d2442ea093e51654f450c75fcdfaf5830757febbae57eedf621499efe48759,Sushi Namoto - B. Petrópolis,PORTO ALEGRE,-51.184964,-30.036056,Comida Japonesa
c787036c004d0689fac5b69f7246242ba40719833788b270015146923f38360b,Cenoura Pastéis,PORTO ALEGRE,-51.137207,-30.004378,Lanches
4190613c6ab8ff6a01fee523aa686e485d6699cd9e31b61f7af8fc299acad039,Restaurante E Pizzaria Coutinho,SAO PAULO,-46.642882,-23.555723,Comida Variada
6504eebda12850d5dac0c1d38ce2f818736ae703dc5516e399d9b97486a2acc7,Lig Burguer Premium Santana,SAO PAULO,-46.632283,-23.489333,Lanches
1cd88c3263ff70a73ddcf06f43084c9d4951c5b9c882c06e519421440e10a762,Espetinhos Espettanejo,SAO PAULO,-46.575643,-23.589941,Carnes
5db94ac305a234a1eb87c3cd0fbc97fa6131f9d4a53a404c1ea7e3e20d8dbf0a,Big Esfiha Bixiga,SAO PAULO,-46.646783,-23.554283,Comida Árabe
f8c0644a90516ae9fedb509c027dcf52637c4b44ac9ee93e826c6a764d41e9d7,Nonna Parmegianas Trattoria,SAO PAULO,-46.567692,-23.555808,Comida Italiana
1c9b33061e6b0f15d93471bad00658bc87c713eb6561e580f83c3c6b98c4a396,Yumi Comida Caseira - Tatuapé,SAO PAULO,-46.567969,-23.550702,Comida Brasileira
f325e2f0471ba7fe97579e3ae5d5b506cd831f583179a7891b290f0f9eab828d,Planeta Pizza,PORTO ALEGRE,-51.237181,-30.107066,Pizza
d519462dae589bc3596a5681d28e4d0cd5d574117ccd92fee770d188220b3a4f,Picchininha,SAO PAULO,-46.507672,-23.520419,Pizza
2bb8ea0b2427caab6105ed0c400d280c572c27a4acb5eabcede6572c0aa4b932,Lima's Bar,SAO PAULO,-46.564507,-23.476398,Comida Variada
424a6b0fa56f68620703dddc26ec242812097204d6c0536f4ee28687835248b0,Esfiharia E Pizzaria Novo Tempo,SAO PAULO,-46.751281,-23.656522,Pizza
a8c515b2f443048fdbea0db6ffc3d439c3ac882e03efbcb0f37973dc8b9c9986,A Cafeteria E Saladaria Quitandaria,RECIFE,-34.880956,-8.037968,Comida Saudável
6df2df647124c4ecbad433e89e6288f48cb06c2720c2a2f82fd15a2c669e09de,New Burger Gourmet,SAO PAULO,-46.505642,-23.499538,Lanches
0e01f54a1f9b9957ebd7fe7021ed9bdc122e715e632482a7695635a0eb621c8e,Super Pizzas Delivery,PORTO ALEGRE,-51.209053,-30.041966,Pizza
96749dfdfefa652214dfba94865514cb25620a548c4e8663110a7eeb39d80532,Naru Prime,SAO PAULO,-46.717739,-23.531873,Comida Japonesa
ec9845d2fad205921f3e0103efe425f336c780e561f82f137439c3f91e5e98f7,La Mafia Burger,SAO PAULO,-46.586623,-23.55941,Lanches
8d9e6d1425fc8823afc77e9919d3df2ae07bd8fd0ce288c8f258113237376bb2,Subway - Bourbon Ipiranga,PORTO ALEGRE,-51.189844,-30.054783,Lanches
611c19255cf057292ac51fc3ad37199d89436af392f4d053deb2adaa33acf60e,Gennovese,SAO PAULO,-46.72796,-23.61447,Comida Brasileira
2cb536fef500b106a72834d4ca4178213404702731bb944d13149dc9a4658cb0,Metz Beer,PORTO ALEGRE,-51.204082,-30.03344,Bebidas
0cb731bc2e7460026a4d69cffc5e5e9f4297b517c2a51fb72dd4a27a60d3ae56,Esfiha Odalícia - Casa Verde,SAO PAULO,-46.658843,-23.507708,Comida Árabe
23163308323ffc735770d6ce2f4c76b77f71cb3cb9afbc2062733a087991a954,Empanadas Bar,SAO PAULO,-46.691544,-23.556428,Lanches
9140ff7a54387feec65f43b5e8307d5cd4761898adc398e0ff486173abcceaee,Pizzaria Dont's,SAO PAULO,-46.742999,-23.659928,Pizza
5455189bdece38af36bb2f469eaecb2fb763b08eb4e94ddf62a300d061f4f6a4,Dolce Via Confeitaria,SAO PAULO,-46.63155,-23.611456,Doces & Bolos
2f416e0f4537befcd2aab10670e2e045736ef4bbd415917c7ac62a03df12c9f6,May Restaurantes,SAO PAULO,-46.494767,-23.566059,Comida Chinesa
e560a74f79c3b509d33576c947000eaa275f4da7beeb36dec38c6e3affb9f563,Cardozo Espetinhos & Cia.,SAO PAULO,-46.516632,-23.586434,Carnes
1fe2af2165aa314591d7e06086466bfaaccca36ae28c1c799383fb3b2b436ffb,Chacarero Gourmet,SAO PAULO,-46.686374,-23.742769,Lanches
2e599b06270628af1e21233b5817af95e932bfcd2eb8c47d4326e4c4bd09aae7,"Luz, Câmera, Burger!",SAO PAULO,-46.649662,-23.58281,Lanches
a0fba9d1516cd657363e57c616983d815f766e1b7a63f18613dede4ec64bb758,Pizzaria Dom Lucca,SAO PAULO,-46.583953,-23.470033,Pizza
cc73a560fa887ecff6a2c04e032e3860e2949e3c084009c45720d4ede5845e58,Porto Bier,PORTO ALEGRE,-51.231962,-30.04703,Bebidas
af038e61ed1cfa3ef6cb954c558efa361b9cd21f4e71ee1f7a8bfd6b6a65f7f1,La Risttó Pizzaria E Hamburgueria,SAO PAULO,-46.596288,-23.602559,Lanches
3f413f570dc55f9c428cfc87760ba7af89f38f0d96da647b22a2279ffa7a7f37,Souza Lanches,SAO PAULO,-46.691622,-23.750702,Lanches
e50039596bf8222669cb45c70d7fbdb43b2ff526205c192c3ad1af0b5f77cbbe,Pizzaria Bertodino  1,SAO PAULO,-46.638668,-23.689311,Pizza
5f626607e069a32a84ae185e214a90af6e0bb837b80d53a305e618886a20f4aa,Cucina Bella Ana,SAO PAULO,-46.641353,-23.558431,Comida Brasileira
e198cbe73f9c04cd6683c92778bdbac295085980d908a0b435f1621fcea2ace7,Pizzaria Mama Cora,SAO PAULO,-46.607054,-23.504415,Pizza
4832e9208be69299b0594bd36f8af32a29be9cfc46d997763b125daec2d8e6d0,Charque Na Brasa Real,RECIFE,-34.921544,-8.081034,Carnes
7a0dc65e5d704f590e8723b4a2c705d8002ae2d141c9d11c78ab607c6079a997,Taioba Sushi,SAO PAULO,-46.691648,-23.566074,Comida Japonesa
140c9efebc7c28cd186a34b3eed1fd67432f3ce8a475bafa3ba3d809b23fe8f1,Sp Burguer,RECIFE,-34.937255,-8.081012,Lanches
4175b46b9b596691026f4fbbd89f09679a4f0f66f2e35fddce92c90e89a9192b,Filligi Restaurante E Pizzaria,RECIFE,-34.893064,-8.059834,Pizza
70ca7d574572389fc9a72c738f035b96711f6eaaeb338eba8a97b869c90b063d,Aze Sushi,SAO PAULO,-46.673119,-23.585513,Comida Japonesa
9f6929fcda52b8e1f9f7df07791b4e97c6cb1f9eecf8cfa2643c3396a11f0722,Griletto - Shopping Metrô Tucuruvi,SAO PAULO,-46.601618,-23.477675,Comida Brasileira
4d3a2b5e413a4e7abba3c6a1b2b89bf8d80c9aa07a08b455b9ab87ce26c78ee8,Binho Lanches Delivery - Ipiranga,SAO PAULO,-46.604288,-23.584911,Lanches
ad0866260d8e0d6e421db7fa9080fd0d53ea73a6b163b8b41cc296aae39bcd6a,The Fifties - Shopping Pátio Paulista,SAO PAULO,-46.645805,-23.563225,Lanches
93b2c4f044fbbe737eb19361dd68c1fdd35d78ee3ea7d115c8cbf102cc434307,Casper Express,SAO PAULO,-46.636703,-23.541273,Comida Árabe
ce659ad837c03fec8643bf7302980095fe0dc786449a099bba8ce5e31f9ba07f,Miliduki Burger & Beer,SAO PAULO,-46.594008,-23.537113,Lanches
0cb72e4472be55d5e421a503c1752724fb46f6af1c1274f0f6accbf09e84dc84,Restaurante Dona Florinda,SAO PAULO,-46.628318,-23.490433,Frutos Do Mar
a15ff2bdda688cf1df3ce4aa93d005cb930e3bb3e15dac89339aa34561854121,Portal Da Bresser,SAO PAULO,-46.613643,-23.533108,Comida Variada
73b09739c99dbf64a839bf3ade3c0fa4aa59cb6fb1ecd05aee0c3033a6f3e317,Bugamaki,RECIFE,-34.890697,-8.062696,Pizza
aedda47f6c203618e49d7bf762568481a6201d0e5620db8cd232d6201252e2c0,Pizzaria Beija-flor,SAO PAULO,-46.706806,-23.743581,Pizza
d8f9938d7b907d7993e9e714a9140262f03ed6a4d20f3f7828bcd46e65ef14b4,Oficina Pizza E Lanches,PORTO ALEGRE,-51.218804,-30.107801,Pizza
a072706604dde7c3bff2b0b34992d6e9b4dcaa0aba4ba0f709dab4d096321e2c,Chiquinho Sorvetes - Recife,RECIFE,-34.904036,-8.131441,Sorvetes
64e5b71cb7d2101e72c16e42ee57ac891636b81d947bbb1ec94b802fc9f92871,Miltinho Pitizzaria,SAO PAULO,-46.656258,-23.488123,Pizza
e6d9881267919bdbf140f6fe4467d4aa131269cba6f629de8542cf724d88b954,Pastificio Raviollini,SAO PAULO,-46.603378,-23.563073,Comida Italiana
6ea47d224c6c3f0b12895444269aaf312c0cf5e111295aafc0d5302f37af6ef4,Habacuque Pizzaria,SAO PAULO,-46.706439,-23.769459,Pizza
2c6a6247bccadea4453e489a9bb899926ac7b8938011f8a64c5bbd90279ffc04,Brevitá - Bixiga,SAO PAULO,-46.642882,-23.555723,Pizza
758eba7b6c29ebe591db5fa11f09c921778678a13242efcbd09b7796313b719f,China Wei,SAO PAULO,-46.638368,-23.604025,Comida Chinesa
69ec1b65d3791d7abf0fba90185827bc687f67e3fb8b09002d6bebdfe8c0684e,Novais Fiori Pizzaria,SAO PAULO,-46.706819,-23.665113,Pizza
e0a000e8484c7ef5af28e33e05eaf94840050863a519db9a0ef8b29f5f85d5da,Espetos Ferreira,SAO PAULO,-46.694319,-23.529368,Comida Variada
6a43cd9a8b7f889ed2abb1805d1d35dbdb7aa98c19deac82aa84586a87a39d21,Mary Pizza,RECIFE,-34.921196,-8.056235,Pizza
31b57af132050291d2d790775171b58b3eb00e294ff37c5ed6ad68a84f0a7151,Ramazotti Pizzaria,SAO PAULO,-46.751244,-23.555138,Pizza
69baa7fd8b7f6a5ad3ea1d1c8b56f0799b8d4150277eec4ceb216ca001e0c689,Café Jardim Cerqueira Cesar,SAO PAULO,-46.665832,-23.557052,Bebidas
fefe2f2f9cb30d9da8a9a514109f883ebe0c174422fa6500d7777eb71bc40513,Cia Da Pizza - Mooca,SAO PAULO,-46.597663,-23.560898,Pizza
2d9bbf26c88ff582501ded938dc07d78e8a8b88da0ab739d5ccbd452b78d0da5,Garagem Da Pizza,SAO PAULO,-46.663103,-23.462135,Pizza
051286cdf294ac146aa2eb37403d9fe8ba24c01d907546f1467df3bcec54c700,Consulado Do Açai,SAO PAULO,-46.695158,-23.631451,Comida Saudável
c995783de7e86f94e2ab970019dcac5ba004d2ecb69c515d33c70b366b08904b,Nandos Pizzaria,SAO PAULO,-46.584803,-23.483813,Pizza
1bae9b06b236c36c0a2545ea269f190c6f2c46db8b2ab1f08d59d093dba3ad26,Restaurante  Duarte,SAO PAULO,-46.404171,-23.501457,Comida Brasileira
900370399d21be90a24fa1b117021f1d9b317d410513e550baaa34bc5a77a1f3,Temix - Aflitos,RECIFE,-34.900113,-8.038779,Comida Japonesa
7829f87f81054389264477c373295e7f1b6438dc28bb465fd645f715919ac0c9,B.lem - Pinheiros,SAO PAULO,-46.683094,-23.564013,Comida Portuguesa
4ff32d9e5c470a994aadb1ee00e715064d3f5e3e3d1db8de1baf34008c16004b,Tamarindus Hamburgueria,SAO PAULO,-46.537623,-23.585884,Lanches
f4e12736bf16deea8b40938e4f3c2d86c81ec9b71fe7b8b500613aa6c85b94c4,Casa Do Pão De Queijo,SAO PAULO,-46.705919,-23.522258,Doces E Salgados      
c55782b741030b37985086b31a6dd2c2d2a2493099496f980c04e0c507caa26c,Armazém São José,SAO PAULO,-46.683696,-23.593969,Comida Brasileira
5eea2d780904587e4656589896b6202c6013768a19f5251bc1a6e564902579e2,O Arturo Gastrobar,SAO PAULO,-46.610173,-23.491803,Comida Brasileira
e3b536ab3024d1e181384fc5e35033a8393e72ff4cd3099316a40ec84a47e148,Tasty Churros E Burguer Gourmet,SAO PAULO,-46.47774,-23.569246,Lanches
93969841185e295de828f4b77f16d6615dece1adf5484126bd0cd4228174bd52,Eat Cup,SAO PAULO,-46.659122,-23.559197,Comida Saudável
21ed1d791155b2ff0e7c8119c03c1ee9a3015ca7d9f0031626a0bd09d50dd2f2,Zeffiro Restaurante Rotisseria,SAO PAULO,-46.653533,-23.553878,Comida Variada
3edbe92a1d74cad42211d15f80614ebdde58e4e9cf8d0f7459c51dbb313127d9,Novos Veganos,SAO PAULO,-46.526277,-23.515093,Lanches
688990dde7aa5c0b8a15a0272b1ac8ef257a1edbf2fefde07fb68eceba310fe6,Mr Texas Pizza Pan - Santana,SAO PAULO,-46.610553,-23.495643,Pizza
9d8e6ad2f029df81ccc60715988a178eb3d03ec39e6bf3a7d1ec6c4e9396b0b3,Condimento,SAO PAULO,-46.56498,-23.551028,Comida Variada
9f1cddacdd58bb7171498a8c67599bc3a9cf9336794f7f63d69e296d9ec1c455,Hamburgeria Falcão,SAO PAULO,-46.588577,-23.563068,Comida Brasileira
22a29950e691454800bad87dc1344117c7824079f707405c2c271db0591f9aed,Yoi Sushi,RECIFE,-34.917289,-8.019397,Comida Japonesa
c5be760e05eacd47161801aa9733d0e254f112897ff3cd4815781700d81fe84c,Sushi Tozawa,SAO PAULO,-46.687059,-23.737854,Comida Japonesa
856e7755a24bd4dfd3394779cf6a6c3a7d5b5d9e58e89a46e928f7dff9736a24,Peixe Frito Bar E Restaurante,SAO PAULO,-46.759441,-23.59562,Comida Variada
5e7591027faca89b537c7ff1551568fae7de4a1f55a5a44a72b2beee88f1e079,Meime Pizzaria,SAO PAULO,-46.617938,-23.481313,Pizza
334351ea96e8b6997a12b757bcf725f7db08377a42ca24a9952bdf2083ae998f,Leve  Detox,SAO PAULO,-46.678239,-23.586681,Comida Saudável
0b982f469d930575ab9afbbcc731062039e20f9fc7c16f59fdec05a07dcd4fd5,Garage Mpower,RECIFE,-34.907531,-8.138099,Lanches
c4d0c5013ff48fe0b0aec1748428ae8260df2a7d2fdcf2f825ec1f3b686e0a65,Sabor Oriental,SAO PAULO,-46.636622,-23.608003,Comida Chinesa
05b42a0b266ab4b55da0ed60f2f2d1e4393c36044835f4ed8912855810cf8853,Kiichi Morumbi,SAO PAULO,-46.736798,-23.631755,Comida Japonesa
a9ff05dedaa7cd1b1088593a9c1e9a09c3474d502effcda73d0b951225fbd286,Bistrot Fitness,SAO PAULO,-46.672687,-23.617256,Comida Saudável
7402a2874bc533bd63baf1cca44aee33e946dcf4d014ae943d01d20cae73d1ae,Riccomini Pizzeria,SAO PAULO,-46.661058,-23.512765,Pizza
f6b9b7923e6a7175cc5907f6aa006795cab818cf23094b491343f39764c18869,Restaurante Midbar,PORTO ALEGRE,-51.210998,-30.034283,Comida Árabe
00c562845316ab89f23e28410be21c9239829b4e61c1ba535c8de0d51d62ecf3,Don Francesco Galeteria,PORTO ALEGRE,-51.193485,-30.013773,Carnes
d225b8595c180066526649544b078e694ecaed533ce737c1fdf0ef3046e1044f,Delifit Gastronomia Saudável,RECIFE,-34.911614,-8.153369,Comida Saudável
e8876cc2b49f9a3a15e64e3cc360e0b6f752b89e5671fe7642e4a250a7633df9,Padaria Center Jotas,SAO PAULO,-46.584367,-23.577074,Cozinha Rápida
9d66a5aac55888500159152ac4ede9da139ac9ace0b5fbf9ea3f20ea621e079d,Isabella Pizzas,SAO PAULO,-46.597938,-23.620243,Pizza
a292d89ded181d0dd91a73c3a2c1bcad86cb5927b72fe9d399f39990d52fb6fd,Tanino's Hamburgueria,SAO PAULO,-46.55307,-23.55971,Lanches
143b2a87136c200cb2d025ce49fecf0a1b19b1960f336e39ca4734bc68b7d5d6,America - Morumbi,SAO PAULO,-46.697502,-23.622218,Lanches
0a0ca50814ffcd7b2a83241070cf91469babb75baf4e5ad450ba73eee79c8456,La Sorelle,SAO PAULO,-46.504492,-23.502962,Pizza
45ee079f07f590aff36bf8239b463447f0e83d76f1521a345c92185f6104e37f,Lono Hawaiian Food,RECIFE,-34.903264,-8.044762,Comida Saudável
e09e4e43ccc803d5c38046df947d1439391773f092b5cb2f98b7ae604821a1a3,Makis Place - Vital Brasil,SAO PAULO,-46.712559,-23.569903,Comida Japonesa
c350dd445b83a513b7fe50a9f3c423c2e0539cef2903e02c7cf5c63cb169a9be,Bar E Lanchonete Calçada Da Barra,SAO PAULO,-46.654093,-23.532483,Comida Brasileira
bd87ff532408263e0b9f9f71468a9f300fd6f0ae243c260689542d38cbffaa57,Ozi&co. Parmegiana E Panini,SAO PAULO,-46.698904,-23.561104,Comida Italiana
0af8312080919e81142a073077fe310e9e3a212674e5da8c53c4ca99dcab6819,Delicious Burguer,SAO PAULO,-46.63311,-23.487406,Lanches
51d5fed50299eba75dc9db4c65bad051151014583e5e954d03a9f9a502792a0c,Estrela Do Castelo Comida Caseira,SAO PAULO,-46.670669,-23.679474,Comida Brasileira
ce086f89f10ca7638e1dd03fb9781e5be630c98567b08dd341677b2bd4ffc8bc,Amor Aos Pedaços - Santana,SAO PAULO,-46.639938,-23.5038,Doces & Bolos
3c3a5a98b15a7f9b4f17e8b7dd45a3e52f3eb39162d5c4ca9c67f5ba9caf342f,Espaço Fit Time,SAO PAULO,-46.605613,-23.634181,Comida Saudável
9e5c8fabaaf3aa5f0b0c4c0e37600c1002045fcff437c2ce3c474de70686a836,Menu Vip Gastronomia,SAO PAULO,-46.679956,-23.602256,Comida Saudável
0cef14d2b51035a14379e0f02664bf4cbd73d1cfaed940c2d8ff7eef688fd786,All Arabia Pratos Rápidos,SAO PAULO,-46.666484,-23.606515,Comida Árabe
2830fc2ca0fc323fa8aea078ea2e7b46a82cbd003c7d531109a7779e8df45334,Life Burger - Aclimação,SAO PAULO,-46.624803,-23.565223,Lanches
b09317e0d4a7898875cb380f50aed28e2ee892741c27e474caccfd73a2474aa1,Mcdonald's - Andradas,PORTO ALEGRE,-51.23153,-30.03097,Lanches
853ee937cc90f4ddaf5bcd2a3409de3bc45acf2fce6e928319bea1355b628ef0,New Burguer Prime,SAO PAULO,-46.573358,-23.549633,Lanches
7e03fced8b8412beb49a758c968b243170fbaa4dfb85d378b6fd98b3ebd20fb9,Paraibanos Bar,RECIFE,-34.943837,-8.03923,Comida Brasileira
c4aa2a6e5706d78a9f81811b3530dd53ffa993f73e7bf91b80d7cc2e915d2e3b,Paulistano Culinária Caseira,SAO PAULO,-46.623768,-23.478423,Comida Variada
afb1f99a2aa04a3aab5f55c99d6e1365aa5579985f7f5ca144680f39050f2605,Star Chicken Jabaquara,SAO PAULO,-46.641694,-23.637961,Comida Brasileira
bb798e6364e0697adaf12a36a78eab2fb8dfa964ab94ad118eb0352c3f5d64fa,Recanto Das Pizzas,SAO PAULO,-46.660619,-23.672679,Pizza
eb37159be3744db099fa8668d5beb196f88adb203221aadba74c72c1310220a9,Restaurante Uekita,SAO PAULO,-46.650313,-23.582843,Comida Japonesa
1a55f9f974eed6a1107dce9152a35010efd9e7c9291603b097ea9119b4abc44b,Sanduba Do Careca,RECIFE,-34.907081,-8.055505,Lanches
be6afec2d53c1802712819cce54e148e21c7ed66355c5acbf75f20747db05e7d,Gula Mania,SAO PAULO,-46.514037,-23.51766,Lanches
a53c165008e6e5283e7e933c531d60137b66d0c3ad6970b179852305c619b21c,Rita Baunilha,SAO PAULO,-46.513697,-23.536534,Comida Saudável
